{
"type": "FeatureCollection",
"name": "depot_points",
"crs": { "type": "name", "properties": { "name": "urn:ogc:def:crs:OGC:1.3:CRS84" } },
"features": [
{ "type": "Feature", "properties": { "depot_radius": 225, "depot_id": "depot_24", "min_enclosing_rad": 201.40070266934381 }, "geometry": { "type": "Point", "coordinates": [ -103.603970299170328, 30.249131570114027 ] } },
{ "type": "Feature", "properties": { "depot_radius": 225, "depot_id": "depot_55", "min_enclosing_rad": 211.60426758183348 }, "geometry": { "type": "Point", "coordinates": [ -103.602104237035519, 30.248761691558023 ] } },
{ "type": "Feature", "properties": { "depot_radius": 225, "depot_id": "depot_169", "min_enclosing_rad": 211.73852867274906 }, "geometry": { "type": "Point", "coordinates": [ -103.599669439650626, 30.248633626261135 ] } }
]
}
