{
"type": "FeatureCollection",
"name": "macro_routes",
"crs": { "type": "name", "properties": { "name": "urn:ogc:def:crs:OGC:1.3:CRS84" } },
"features": [
{ "type": "Feature", "properties": { "route_id": "depot_25_R0", "route_depot": "depot_25", "route_cells": "[np.int64(23), np.int64(18), np.int64(15), np.int64(12), np.int64(8), np.int64(7), np.int64(11), np.int64(5), np.int64(4), np.int64(3), np.int64(2), np.int64(6), np.int64(16)]" }, "geometry": { "type": "LineString", "coordinates": [ [ -103.603874741802173, 30.248948209241615 ], [ -103.603985270873679, 30.248530877091977 ], [ -103.604284546503521, 30.248249429716353 ], [ -103.604403754103927, 30.247894324512789 ], [ -103.604558447285797, 30.247593999976843 ], [ -103.604875481292694, 30.247761574218909 ], [ -103.605160331867097, 30.247986014285544 ], [ -103.604752998921711, 30.248139674086659 ], [ -103.604741248171266, 30.24852649970143 ], [ -103.605168543554427, 30.248375149145275 ], [ -103.605172661062269, 30.24875797382747 ], [ -103.605194291819245, 30.249144055475529 ], [ -103.604751814421149, 30.249023303855576 ], [ -103.604380945029632, 30.248720271769095 ], [ -103.603874741802173, 30.248948209241615 ] ] } },
{ "type": "Feature", "properties": { "route_id": "depot_25_R1", "route_depot": "depot_25", "route_cells": "[np.int64(25)]" }, "geometry": { "type": "LineString", "coordinates": [ [ -103.603874741802173, 30.248948209241615 ], [ -103.603874741802173, 30.248948209241615 ], [ -103.603874741802173, 30.248948209241615 ] ] } },
{ "type": "Feature", "properties": { "route_id": "depot_25_R2", "route_depot": "depot_25", "route_cells": "[np.int64(36), np.int64(41), np.int64(39), np.int64(42), np.int64(35), np.int64(26), np.int64(29), np.int64(17), np.int64(21), np.int64(30), np.int64(31)]" }, "geometry": { "type": "LineString", "coordinates": [ [ -103.603874741802173, 30.248948209241615 ], [ -103.603299611563884, 30.249021492526019 ], [ -103.602926217424056, 30.248706523187277 ], [ -103.60321013943134, 30.248301899217005 ], [ -103.602952837712337, 30.247889289365446 ], [ -103.603433463559384, 30.247886386523319 ], [ -103.603285869669364, 30.247497754169764 ], [ -103.603719761674498, 30.247526183073632 ], [ -103.604150792997771, 30.247541820206205 ], [ -103.60394674065607, 30.247892091962076 ], [ -103.603712147187068, 30.248216783668887 ], [ -103.603504448254355, 30.248634894021269 ], [ -103.603874741802173, 30.248948209241615 ] ] } },
{ "type": "Feature", "properties": { "route_id": "depot_25_R3", "route_depot": "depot_25", "route_cells": "[np.int64(22), np.int64(24), np.int64(28), np.int64(19), np.int64(14), np.int64(1), np.int64(0), np.int64(9), np.int64(10), np.int64(13), np.int64(20), np.int64(27), np.int64(37), np.int64(32), np.int64(40), np.int64(38), np.int64(33)]" }, "geometry": { "type": "LineString", "coordinates": [ [ -103.603874741802173, 30.248948209241615 ], [ -103.604303222741535, 30.249138421896625 ], [ -103.60402805701878, 30.249497342776312 ], [ -103.603689055028283, 30.249869791999156 ], [ -103.604217213820831, 30.249912318507739 ], [ -103.604496282407453, 30.249550768039093 ], [ -103.604873131501733, 30.249473962787093 ], [ -103.605306865036539, 30.249503394413484 ], [ -103.605107025176579, 30.249833229717293 ], [ -103.604742072170296, 30.25002397346563 ], [ -103.604430707724646, 30.250306962369422 ], [ -103.603978732136611, 30.250353139551173 ], [ -103.603570458215202, 30.250460113141276 ], [ -103.603090534039765, 30.250465176027273 ], [ -103.603312566640383, 30.250118658794534 ], [ -103.602989068157555, 30.249894166554686 ], [ -103.603234967440244, 30.249519549150907 ], [ -103.603644539859914, 30.249334960325392 ], [ -103.603874741802173, 30.248948209241615 ] ] } },
{ "type": "Feature", "properties": { "route_id": "depot_60_R0", "route_depot": "depot_60", "route_cells": "[np.int64(60), np.int64(56), np.int64(53), np.int64(62), np.int64(50), np.int64(45), np.int64(52), np.int64(44), np.int64(43), np.int64(51)]" }, "geometry": { "type": "LineString", "coordinates": [ [ -103.601875378269725, 30.248951213917454 ], [ -103.601875378269725, 30.248951213917454 ], [ -103.602270877204887, 30.24929282316451 ], [ -103.602098802617121, 30.24968033986265 ], [ -103.601930709285924, 30.250036787288277 ], [ -103.602167868524134, 30.250403338800922 ], [ -103.602675912688554, 30.250372663695249 ], [ -103.602447620489315, 30.250014248250039 ], [ -103.602640817023953, 30.249617910308402 ], [ -103.602824678359127, 30.249205297225139 ], [ -103.602417994305682, 30.24890840171215 ], [ -103.601875378269725, 30.248951213917454 ] ] } },
{ "type": "Feature", "properties": { "route_id": "depot_60_R1", "route_depot": "depot_60", "route_cells": "[np.int64(48), np.int64(46), np.int64(49), np.int64(47), np.int64(34), np.int64(61), np.int64(68), np.int64(78), np.int64(71), np.int64(65), np.int64(63), np.int64(57), np.int64(55)]" }, "geometry": { "type": "LineString", "coordinates": [ [ -103.601875378269725, 30.248951213917454 ], [ -103.60242682873168, 30.248521929138327 ], [ -103.60271642219503, 30.248236096892576 ], [ -103.602417541725188, 30.247821626478217 ], [ -103.602861623491961, 30.247486070163077 ], [ -103.602442194005476, 30.247428555781713 ], [ -103.601998171400425, 30.247411155134017 ], [ -103.601513600124662, 30.247420030577228 ], [ -103.601072740812754, 30.247389752048651 ], [ -103.601193195159382, 30.247890994948957 ], [ -103.601593029851074, 30.248158608167074 ], [ -103.601813645757801, 30.247788352720647 ], [ -103.602144511544353, 30.248148590949285 ], [ -103.601946216090084, 30.248543465541005 ], [ -103.601875378269725, 30.248951213917454 ] ] } },
{ "type": "Feature", "properties": { "route_id": "depot_60_R2", "route_depot": "depot_60", "route_cells": "[np.int64(67), np.int64(73), np.int64(72), np.int64(75), np.int64(74), np.int64(81), np.int64(77), np.int64(76), np.int64(69), np.int64(59), np.int64(64), np.int64(66), np.int64(70)]" }, "geometry": { "type": "LineString", "coordinates": [ [ -103.601875378269725, 30.248951213917454 ], [ -103.601472087460209, 30.248567292854844 ], [ -103.601023981772798, 30.248387683680971 ], [ -103.601091492589504, 30.248813320238877 ], [ -103.600895377140816, 30.249186189160401 ], [ -103.601220835824563, 30.249493189405815 ], [ -103.600717110538923, 30.249620263375309 ], [ -103.600568030669379, 30.250115435609594 ], [ -103.600999043225045, 30.249878288967967 ], [ -103.601134972275219, 30.250189340555753 ], [ -103.60161043779064, 30.250303662006228 ], [ -103.601515725641562, 30.249830240397078 ], [ -103.601745071275573, 30.249406182432889 ], [ -103.601425007150141, 30.249088284932014 ], [ -103.601875378269725, 30.248951213917454 ] ] } },
{ "type": "Feature", "properties": { "route_id": "depot_169_R0", "route_depot": "depot_169", "route_cells": "[np.int64(96), np.int64(104), np.int64(97), np.int64(100), np.int64(106), np.int64(112), np.int64(109), np.int64(107), np.int64(101), np.int64(105), np.int64(94), np.int64(88), np.int64(92), np.int64(54), np.int64(84), np.int64(80), np.int64(86), np.int64(95)]" }, "geometry": { "type": "LineString", "coordinates": [ [ -103.599669439650626, 30.248633626261135 ], [ -103.599529071254551, 30.248595603883462 ], [ -103.599101141284635, 30.248898326370902 ], [ -103.599563370019695, 30.249021938857783 ], [ -103.599406321263245, 30.249402442058226 ], [ -103.598963113362714, 30.249316662875145 ], [ -103.598499640080718, 30.249100622521748 ], [ -103.598708297548626, 30.248700672271852 ], [ -103.598990977780048, 30.248358156254184 ], [ -103.599370838677643, 30.248160486000355 ], [ -103.599208633127802, 30.247849329854233 ], [ -103.599626725381427, 30.247651029099021 ], [ -103.600081978480276, 30.247809605471829 ], [ -103.600122380866381, 30.247441379373772 ], [ -103.600602553243959, 30.247299760546806 ], [ -103.600633291163078, 30.247673542775949 ], [ -103.60070339446726, 30.248030062679188 ], [ -103.600232821703045, 30.248136869840234 ], [ -103.599770627607185, 30.248173058069597 ], [ -103.599669439650626, 30.248633626261135 ] ] } },
{ "type": "Feature", "properties": { "route_id": "depot_169_R1", "route_depot": "depot_169", "route_cells": "[np.int64(90), np.int64(91), np.int64(99), np.int64(103), np.int64(110), np.int64(111), np.int64(108), np.int64(102), np.int64(93), np.int64(98), np.int64(58), np.int64(85), np.int64(89), np.int64(83), np.int64(79), np.int64(82), np.int64(87)]" }, "geometry": { "type": "LineString", "coordinates": [ [ -103.599669439650626, 30.248633626261135 ], [ -103.60003131340747, 30.248918197001117 ], [ -103.599917729702312, 30.249358497643122 ], [ -103.599626986051163, 30.249747308921524 ], [ -103.599116619513396, 30.249802839945492 ], [ -103.598659182969527, 30.249600071344457 ], [ -103.598234582397694, 30.24949669716371 ], [ -103.598501635301716, 30.249974590884243 ], [ -103.598967490036713, 30.250192309203509 ], [ -103.599464988691594, 30.250238085174612 ], [ -103.599829444988941, 30.25005958403775 ], [ -103.600086663496512, 30.250294739098486 ], [ -103.600169073023963, 30.249835366687151 ], [ -103.600324954004151, 30.249533536119564 ], [ -103.600427093532474, 30.249185305522293 ], [ -103.600574891171803, 30.248799028213199 ], [ -103.60055911162199, 30.248412728954872 ], [ -103.600082083600071, 30.248535960155927 ], [ -103.599669439650626, 30.248633626261135 ] ] } }
]
}
