{
"type": "FeatureCollection",
"name": "micro_routes",
"crs": { "type": "name", "properties": { "name": "urn:ogc:def:crs:OGC:1.3:CRS84" } },
"features": [
{ "type": "Feature", "properties": { "route_id": "depot_27_R0", "closest_depot": "depot_27", "route_cells": "[np.int64(45), np.int64(47), np.int64(26), np.int64(53), np.int64(44), np.int64(78), np.int64(60), np.int64(59), np.int64(54), np.int64(51), np.int64(40), np.int64(34)]" }, "geometry": { "type": "LineString", "coordinates": [ [ -103.603417970260736, 30.24751485636904 ], [ -103.602971244409957, 30.247772792884092 ], [ -103.602658458933874, 30.247847126865775 ], [ -103.602543710755086, 30.247842810360115 ], [ -103.602561512033901, 30.247808359698762 ], [ -103.602431371628626, 30.24742708659198 ], [ -103.602024471250232, 30.247437301484538 ], [ -103.601804901674384, 30.247587226570243 ], [ -103.601721973973611, 30.247455956633765 ], [ -103.60168470978364, 30.247414702998892 ], [ -103.601436016041362, 30.247262455493605 ], [ -103.601417799822769, 30.247288873536064 ], [ -103.601332960487156, 30.247281145495791 ], [ -103.60134390189468, 30.24721946976365 ], [ -103.601335426897748, 30.247171469530631 ], [ -103.601249670811427, 30.24715505597381 ], [ -103.601259164802755, 30.247223049902669 ], [ -103.601172606918141, 30.24725923482022 ], [ -103.60115318376468, 30.247341238666728 ], [ -103.601138315979071, 30.247369033350488 ], [ -103.601160525619605, 30.247454775530244 ], [ -103.601219940847386, 30.247653478255351 ], [ -103.60130134935028, 30.247635797246463 ], [ -103.601258173270779, 30.247527481438922 ], [ -103.601271609505531, 30.247389557048603 ], [ -103.601345903622473, 30.24737153331445 ], [ -103.601371344505935, 30.247332090744724 ], [ -103.601388489769917, 30.247348987035217 ], [ -103.601381723197946, 30.247385860661822 ], [ -103.601390476803573, 30.247413359051457 ], [ -103.601416583006142, 30.247433628792784 ], [ -103.601442492644892, 30.247488167613838 ], [ -103.601479284817628, 30.247468687674907 ], [ -103.601495646006327, 30.247549290919469 ], [ -103.601472152004803, 30.247607851650802 ], [ -103.60155381498717, 30.247624047965502 ], [ -103.601466838246211, 30.24777929237257 ], [ -103.601459172170323, 30.247805172793523 ], [ -103.60162373532701, 30.247852883100872 ], [ -103.601741075133859, 30.247920700455555 ], [ -103.601794332251174, 30.247813326627664 ], [ -103.601760133851215, 30.247824127213764 ], [ -103.601722806869191, 30.247819045395897 ], [ -103.60173811621037, 30.247778241573766 ], [ -103.601723428189217, 30.247687635743496 ], [ -103.601749220431785, 30.24771081013445 ], [ -103.601817406127807, 30.247726846965431 ], [ -103.601875326549035, 30.247743916151087 ], [ -103.601923574841933, 30.247844272069482 ], [ -103.602051931990971, 30.247843317635528 ], [ -103.602101839366, 30.247903385430078 ], [ -103.602160571822012, 30.247934903952807 ], [ -103.602123523996951, 30.247865115059078 ], [ -103.602184700924582, 30.247754098029901 ], [ -103.602340770646506, 30.247742899904846 ], [ -103.602407491304447, 30.247785127859274 ], [ -103.602325321701201, 30.248093269133417 ], [ -103.602327486988131, 30.248209815085652 ], [ -103.602165739826447, 30.248154032333026 ], [ -103.602131281080332, 30.24809903393453 ], [ -103.601999094854108, 30.248061613503705 ], [ -103.601882423746304, 30.247988238926414 ], [ -103.601872087988454, 30.248158505127879 ], [ -103.601785177190308, 30.248217573239447 ], [ -103.60189511280754, 30.248344218380396 ], [ -103.601969431799318, 30.248247045723136 ], [ -103.602095320855057, 30.248211678925546 ], [ -103.602147168348864, 30.248237916838647 ], [ -103.602062953316803, 30.248440485158419 ], [ -103.601854125547348, 30.248596740345523 ], [ -103.602064624684871, 30.248591657219059 ], [ -103.602226124114949, 30.24853247158261 ], [ -103.602296145412282, 30.248437505667336 ], [ -103.602356854950116, 30.248452919325221 ], [ -103.602535711369896, 30.248416804775932 ], [ -103.60280745723189, 30.248321301547463 ], [ -103.602809940605511, 30.248209892351152 ], [ -103.602648224889833, 30.248161432003382 ], [ -103.602616181115039, 30.248016992916451 ], [ -103.603006931753228, 30.248041579477047 ], [ -103.603065717542677, 30.248007604526347 ], [ -103.603417970260736, 30.24751485636904 ] ] } },
{ "type": "Feature", "properties": { "route_id": "depot_27_R1", "closest_depot": "depot_27", "route_cells": "[np.int64(27), np.int64(15), np.int64(21), np.int64(6), np.int64(7), np.int64(5), np.int64(14), np.int64(22), np.int64(33), np.int64(29)]" }, "geometry": { "type": "LineString", "coordinates": [ [ -103.603417970260736, 30.24751485636904 ], [ -103.603345149468353, 30.247558934172233 ], [ -103.603546712591395, 30.247950734007162 ], [ -103.603686830037702, 30.247869428854063 ], [ -103.603926848047237, 30.248034949604293 ], [ -103.603792234791712, 30.248117065993132 ], [ -103.603835259405258, 30.248213551507973 ], [ -103.603717825018919, 30.248262023451527 ], [ -103.603842907090737, 30.248337699494229 ], [ -103.603933926133152, 30.248349889971035 ], [ -103.603991463664869, 30.248302518914066 ], [ -103.604156726735283, 30.248317417988044 ], [ -103.604157865834424, 30.248198306075405 ], [ -103.604200119141339, 30.248139561291296 ], [ -103.604308920788213, 30.248068316714459 ], [ -103.604336099402047, 30.2481095660318 ], [ -103.604420674894271, 30.248090865900224 ], [ -103.604451616464218, 30.248147717857282 ], [ -103.604497038954833, 30.248174395017369 ], [ -103.604521280789825, 30.248131409367822 ], [ -103.604577758162861, 30.248132365893479 ], [ -103.604560666800694, 30.248112137537124 ], [ -103.604542540588554, 30.247958568423343 ], [ -103.604509504859152, 30.247893079943729 ], [ -103.604418474301539, 30.247925673847273 ], [ -103.604421785517161, 30.247868327215777 ], [ -103.604514626983104, 30.247832473228552 ], [ -103.60455343336622, 30.247824596268362 ], [ -103.60460732825274, 30.247846686992446 ], [ -103.604627051726439, 30.247887037632587 ], [ -103.604647008321109, 30.247968833830349 ], [ -103.604667154289629, 30.247994718084644 ], [ -103.604742972348348, 30.248121157509022 ], [ -103.604719073025265, 30.248132867409819 ], [ -103.604569461188333, 30.248207543602803 ], [ -103.604474245191511, 30.248224132680754 ], [ -103.6044287593257, 30.248274701556138 ], [ -103.604369485292835, 30.248228803200821 ], [ -103.60434503105391, 30.248304844898186 ], [ -103.604298906244395, 30.248316934676261 ], [ -103.604331553141222, 30.248346343924439 ], [ -103.604337643411256, 30.24838301552046 ], [ -103.604375571221652, 30.248341770468684 ], [ -103.604528221186541, 30.248381521676531 ], [ -103.604534284970796, 30.24829644582859 ], [ -103.604713652355429, 30.248259679032916 ], [ -103.604740759374351, 30.248288496886708 ], [ -103.604783992076165, 30.248285131576093 ], [ -103.604866096546971, 30.248319489231658 ], [ -103.604739669978215, 30.248406435728171 ], [ -103.605024344195243, 30.248502914828574 ], [ -103.605302558591433, 30.248506012122018 ], [ -103.605305244330665, 30.24856830091446 ], [ -103.605373145728478, 30.248527790615618 ], [ -103.605394859978361, 30.248528701680566 ], [ -103.605382122406013, 30.248507741890869 ], [ -103.605336270009033, 30.248490590004874 ], [ -103.605360752485453, 30.248464433353135 ], [ -103.605265783359442, 30.248379098827542 ], [ -103.605287670049293, 30.248337757942487 ], [ -103.605310291620142, 30.248117612617786 ], [ -103.605295815447107, 30.248036888029837 ], [ -103.60523632506829, 30.248003658845917 ], [ -103.605233719046538, 30.248061843920244 ], [ -103.605224339832787, 30.248090599228721 ], [ -103.605207001376485, 30.248124263812329 ], [ -103.605138282026715, 30.248137386677055 ], [ -103.605016180079332, 30.248163910276649 ], [ -103.604963851638601, 30.248161718687737 ], [ -103.605107873262838, 30.248067555310808 ], [ -103.605152714230385, 30.248053774886241 ], [ -103.605057647787191, 30.248022768957437 ], [ -103.604912791968701, 30.247989894351662 ], [ -103.605032223547141, 30.24793613808858 ], [ -103.605093598400188, 30.247942172016209 ], [ -103.605180591995648, 30.247922118758908 ], [ -103.605321433572968, 30.247874879316907 ], [ -103.605198931576368, 30.24779126881884 ], [ -103.605107270856749, 30.247754486297282 ], [ -103.605058511295624, 30.247784790073691 ], [ -103.605048658563916, 30.247746977805718 ], [ -103.604980692724894, 30.247720139963381 ], [ -103.60503005476852, 30.247646901675566 ], [ -103.604944214088704, 30.247645038170329 ], [ -103.604891263805541, 30.247632389761144 ], [ -103.604850308573845, 30.247643903843752 ], [ -103.604763526914894, 30.247732891695581 ], [ -103.604759973337792, 30.24779531093996 ], [ -103.604685537029454, 30.247680744501672 ], [ -103.604638910290447, 30.247616091825517 ], [ -103.604646760127167, 30.247585487271319 ], [ -103.604457241858924, 30.247650545278088 ], [ -103.603981450658821, 30.247433153861746 ], [ -103.60382450426664, 30.247468454979149 ], [ -103.603788939029087, 30.247621289777076 ], [ -103.603631415526024, 30.247522477142851 ], [ -103.603472695061612, 30.247365482447584 ], [ -103.603417970260736, 30.24751485636904 ] ] } },
{ "type": "Feature", "properties": { "route_id": "depot_30_R0", "closest_depot": "depot_30", "route_cells": "[np.int64(30), np.int64(23), np.int64(19), np.int64(18), np.int64(13), np.int64(17), np.int64(25), np.int64(32), np.int64(31)]" }, "geometry": { "type": "LineString", "coordinates": [ [ -103.603488011984879, 30.249524076642249 ], [ -103.603499857934736, 30.249422665573483 ], [ -103.603531282561832, 30.249304594022814 ], [ -103.603416648812967, 30.249409504198887 ], [ -103.603378979290284, 30.249427214999621 ], [ -103.603299578737079, 30.249380851167576 ], [ -103.603342082709119, 30.249424332730683 ], [ -103.603353065787218, 30.249455289615522 ], [ -103.603312248151028, 30.249644842817368 ], [ -103.603415640507947, 30.24970783243846 ], [ -103.603436144752209, 30.249693515753851 ], [ -103.603516693520632, 30.249697582791423 ], [ -103.603554524169382, 30.249725511020237 ], [ -103.603548295230965, 30.249776087727867 ], [ -103.603552460699618, 30.249842499256388 ], [ -103.603486086509321, 30.249856772764325 ], [ -103.603395591228363, 30.249824847339504 ], [ -103.603243319496343, 30.249863183924298 ], [ -103.603251216067591, 30.24990970688 ], [ -103.60326045004301, 30.249959122786169 ], [ -103.603294140853052, 30.249951934845679 ], [ -103.603322991122823, 30.249936767172802 ], [ -103.60334405031287, 30.249978427132657 ], [ -103.60337364254633, 30.249964249201071 ], [ -103.603403408288443, 30.249915270184719 ], [ -103.603444112377318, 30.249903372884624 ], [ -103.603550358371763, 30.249899093952305 ], [ -103.603563511351666, 30.249953353217823 ], [ -103.603526105368488, 30.249980769570392 ], [ -103.603548369055531, 30.250003307593815 ], [ -103.603463082239529, 30.250021610921856 ], [ -103.603442175779321, 30.250043027929411 ], [ -103.603374066052098, 30.25008586683602 ], [ -103.603300488342356, 30.250053419939405 ], [ -103.603233126061028, 30.250023323371952 ], [ -103.603292329825962, 30.250073239120002 ], [ -103.603321391558978, 30.250138397376752 ], [ -103.603356635777473, 30.250124365066544 ], [ -103.603454024820778, 30.250123982851125 ], [ -103.603461836271393, 30.25020503528707 ], [ -103.603376777307332, 30.250308489549841 ], [ -103.603340913287269, 30.250219742701045 ], [ -103.603295337232865, 30.250174859390942 ], [ -103.603269879467732, 30.250261224222186 ], [ -103.60322720280881, 30.250349074934768 ], [ -103.603089855425438, 30.250284376927755 ], [ -103.603053180462751, 30.250363439838601 ], [ -103.602930412771201, 30.250440076229168 ], [ -103.602970595681001, 30.250487628514243 ], [ -103.603069330264915, 30.250508477307545 ], [ -103.603154387735827, 30.250596471215776 ], [ -103.603199337839285, 30.250559305461703 ], [ -103.603161936331986, 30.250500515493407 ], [ -103.603277393824797, 30.250454096944964 ], [ -103.603324930657649, 30.250397268067442 ], [ -103.603323407966428, 30.250610343497033 ], [ -103.603362183726802, 30.250589951250568 ], [ -103.603551023892521, 30.250570655062276 ], [ -103.603603121133744, 30.250614985269355 ], [ -103.603643450907626, 30.250517129678016 ], [ -103.60369186543673, 30.250563020492894 ], [ -103.603803918553993, 30.250627751803201 ], [ -103.603968570089492, 30.250609516283959 ], [ -103.604012915053161, 30.250504186979342 ], [ -103.604191110680475, 30.250549929020949 ], [ -103.604219603507815, 30.250554118783384 ], [ -103.604291644634245, 30.250534629546799 ], [ -103.60431779948324, 30.250466343925169 ], [ -103.604356977156257, 30.250499038846666 ], [ -103.604438021329855, 30.250492619977578 ], [ -103.60440659263945, 30.250398657000975 ], [ -103.604344424532414, 30.250299640796154 ], [ -103.604341086121053, 30.25025700366546 ], [ -103.604312981209887, 30.250288492984609 ], [ -103.604278617764919, 30.25029555814162 ], [ -103.604281046229644, 30.250318304917002 ], [ -103.604278062375158, 30.250355464285338 ], [ -103.604228838196306, 30.250329134517145 ], [ -103.604236204354365, 30.250300954049575 ], [ -103.60421819674977, 30.250276512512691 ], [ -103.604231132970511, 30.250233825673508 ], [ -103.604199202613216, 30.250176828846232 ], [ -103.604184179844111, 30.250156931898083 ], [ -103.60411228183122, 30.250200395970456 ], [ -103.604129686002068, 30.25024064818723 ], [ -103.604094978204145, 30.250250311395156 ], [ -103.604044692469898, 30.250248309709509 ], [ -103.604027507277394, 30.250311901793193 ], [ -103.604033494305042, 30.25036226433015 ], [ -103.604063132034199, 30.250347260273092 ], [ -103.604153821737768, 30.250324830888477 ], [ -103.604212870222028, 30.250370278836659 ], [ -103.604179909913043, 30.250408057458557 ], [ -103.604233358936099, 30.250442902650153 ], [ -103.604149293332512, 30.250467054033461 ], [ -103.604106330108607, 30.250399538354205 ], [ -103.604031222916944, 30.250429655213498 ], [ -103.603998894816499, 30.250425290691677 ], [ -103.603942975671103, 30.250453592503757 ], [ -103.603897298151693, 30.250474406303912 ], [ -103.603873007186053, 30.250538271747825 ], [ -103.603725736995585, 30.250484799109618 ], [ -103.603802982092546, 30.250360976783782 ], [ -103.603939713733311, 30.250392915559534 ], [ -103.60393559040628, 30.250354644589926 ], [ -103.603891073863778, 30.250244512778224 ], [ -103.603846811854041, 30.250198760724757 ], [ -103.60381585278482, 30.250207410900916 ], [ -103.603767763813195, 30.250207555249339 ], [ -103.603756876808603, 30.250172269645081 ], [ -103.603773850606927, 30.250122896701555 ], [ -103.603752366322695, 30.25009604321485 ], [ -103.60366960525559, 30.250135277705343 ], [ -103.603659591848313, 30.250167814684719 ], [ -103.603628832295911, 30.250127497544952 ], [ -103.603579186694063, 30.250067455985583 ], [ -103.603665690069462, 30.250018971685208 ], [ -103.60381909443322, 30.249972444231393 ], [ -103.603828038500481, 30.249943048353515 ], [ -103.603897608038324, 30.249966845379369 ], [ -103.603863839181471, 30.250037277487461 ], [ -103.603910865834123, 30.250107983828752 ], [ -103.603980147342398, 30.25012319109635 ], [ -103.604018137144266, 30.250106804773289 ], [ -103.604037320800899, 30.250022764868071 ], [ -103.604030850942053, 30.249957055848274 ], [ -103.603986475255965, 30.249957944358492 ], [ -103.603976579991098, 30.249927738167315 ], [ -103.603958285243948, 30.249893709064157 ], [ -103.604082907830147, 30.249869318884592 ], [ -103.60409070306676, 30.249919070868732 ], [ -103.604152023846936, 30.249911036823246 ], [ -103.604189694137759, 30.249888246273869 ], [ -103.604207406726374, 30.249916731618828 ], [ -103.604155677429887, 30.249975066069769 ], [ -103.604197691742385, 30.249997840893293 ], [ -103.604249161608777, 30.250002958462517 ], [ -103.604255080233415, 30.250056306767405 ], [ -103.604279984249914, 30.250084437331616 ], [ -103.604256664683703, 30.250117868746901 ], [ -103.604249144707879, 30.250160895934268 ], [ -103.604293776252007, 30.250150197289713 ], [ -103.604325928077245, 30.250183102195866 ], [ -103.60444376570733, 30.250206266454565 ], [ -103.604415110694788, 30.250032921023131 ], [ -103.604321760376976, 30.250045816885436 ], [ -103.604348238600139, 30.249998733202641 ], [ -103.604320620021383, 30.249978787600423 ], [ -103.604332218490512, 30.249946804494289 ], [ -103.604351108102307, 30.249882714179527 ], [ -103.604343129899831, 30.249838828136287 ], [ -103.604347942311492, 30.249793482294933 ], [ -103.604283418470359, 30.24976429434459 ], [ -103.604259265328565, 30.24977944363776 ], [ -103.604231333523643, 30.24980378875329 ], [ -103.604253134933217, 30.249734807030833 ], [ -103.604290341493325, 30.249678718575698 ], [ -103.604359110541083, 30.249645850619078 ], [ -103.604205755048568, 30.249587710924231 ], [ -103.604125610772627, 30.249671911374183 ], [ -103.604104811833395, 30.249749431752061 ], [ -103.604048866702271, 30.24977645518614 ], [ -103.60400168820766, 30.24975898112028 ], [ -103.603979646544573, 30.249713773043922 ], [ -103.604005118513413, 30.249693584149174 ], [ -103.604048739673729, 30.249652373542425 ], [ -103.604074601124424, 30.249588676397241 ], [ -103.603945108047299, 30.249600707956198 ], [ -103.603929095488184, 30.249662062219628 ], [ -103.603930461377473, 30.249700861362289 ], [ -103.603885875252047, 30.24973529436021 ], [ -103.603832426199844, 30.249751403109812 ], [ -103.60375083130053, 30.249759522364762 ], [ -103.603762706695463, 30.249780867131534 ], [ -103.603724389157136, 30.249796427535671 ], [ -103.603777630970725, 30.249825009098476 ], [ -103.603808545603911, 30.249833470284717 ], [ -103.603868233274284, 30.249857704431054 ], [ -103.60377574188901, 30.249883230780434 ], [ -103.603755220093987, 30.249874441759275 ], [ -103.603711037276625, 30.249899676496369 ], [ -103.603694536841502, 30.249930131930284 ], [ -103.603702616937142, 30.249861342454146 ], [ -103.603646597932382, 30.249812160898188 ], [ -103.603642615870839, 30.249788771394662 ], [ -103.603636272857571, 30.24975106801622 ], [ -103.603605363430702, 30.249714204644174 ], [ -103.603733084079451, 30.249699591768866 ], [ -103.603806477601097, 30.249695238016081 ], [ -103.603761574071143, 30.249596413809151 ], [ -103.603779599786662, 30.249510309249718 ], [ -103.60378091597731, 30.249481518716195 ], [ -103.603710418034069, 30.249494335945087 ], [ -103.603634201580007, 30.24950741739076 ], [ -103.603593542562194, 30.249523884941674 ], [ -103.60358304145916, 30.249563621551193 ], [ -103.603609537954256, 30.249588369561817 ], [ -103.603505773608234, 30.249609727078031 ], [ -103.603488011984879, 30.249524076642249 ] ] } },
{ "type": "Feature", "properties": { "route_id": "depot_30_R1", "closest_depot": "depot_30", "route_cells": "[np.int64(41), np.int64(50), np.int64(38), np.int64(49), np.int64(56), np.int64(57), np.int64(52), np.int64(55), np.int64(61), np.int64(48), np.int64(58), np.int64(46), np.int64(39), np.int64(42), np.int64(43), np.int64(36)]" }, "geometry": { "type": "LineString", "coordinates": [ [ -103.603488011984879, 30.249524076642249 ], [ -103.603247614395485, 30.249520663711127 ], [ -103.603213634558372, 30.249673957679668 ], [ -103.603168521942919, 30.249719550579496 ], [ -103.603185818224034, 30.249753955526941 ], [ -103.603192506392148, 30.249777670012403 ], [ -103.603206572698454, 30.249806851951544 ], [ -103.603153664877837, 30.249885155313702 ], [ -103.60309488814454, 30.249897329320223 ], [ -103.60312327841865, 30.249912900258842 ], [ -103.603127015446489, 30.249955431673197 ], [ -103.603119845318489, 30.249976830292002 ], [ -103.603165440736134, 30.250013829053501 ], [ -103.603187484090185, 30.250074647548956 ], [ -103.603195054117279, 30.250123708263924 ], [ -103.60320861397858, 30.250138598402376 ], [ -103.603181935705294, 30.250174061277143 ], [ -103.6030216784864, 30.250193017717038 ], [ -103.6029701431045, 30.250236170883291 ], [ -103.602997665495508, 30.25026856134879 ], [ -103.60295528287223, 30.250287959947727 ], [ -103.602869249969046, 30.250263031899664 ], [ -103.602835361191509, 30.250230547117109 ], [ -103.602864544985081, 30.250195305939524 ], [ -103.602905484692698, 30.250200601505149 ], [ -103.602951193631085, 30.250172953586056 ], [ -103.602930200287915, 30.250149675450903 ], [ -103.602899701433813, 30.250103091529216 ], [ -103.602876026082996, 30.250072801639565 ], [ -103.60294831226193, 30.25009891873427 ], [ -103.603004666686559, 30.2500884275915 ], [ -103.603068392672995, 30.250128980255127 ], [ -103.603130489093189, 30.25011454260817 ], [ -103.603133332530277, 30.250097286372956 ], [ -103.603135036507027, 30.250066021892636 ], [ -103.603115236464234, 30.250044260747895 ], [ -103.603082998930546, 30.250062832119589 ], [ -103.603071457468218, 30.250041193837681 ], [ -103.603109820868525, 30.250003906598749 ], [ -103.603092093527067, 30.24998802212377 ], [ -103.60304826805239, 30.24994084233726 ], [ -103.603022478990468, 30.249934739948873 ], [ -103.603032100618023, 30.249954071314402 ], [ -103.603015520422474, 30.249993372417528 ], [ -103.602968985578926, 30.250007184275827 ], [ -103.602968332645077, 30.249962649498748 ], [ -103.602940480615445, 30.249936166726371 ], [ -103.602873789447784, 30.249902719669404 ], [ -103.602731570695269, 30.249994037079354 ], [ -103.602742146037457, 30.250027431784986 ], [ -103.602697799473987, 30.250019119891672 ], [ -103.602675267859794, 30.250050495995353 ], [ -103.602770945066396, 30.250193339800475 ], [ -103.602744270494341, 30.250232330936477 ], [ -103.602782119764896, 30.250239215496617 ], [ -103.602774901682281, 30.250330595890368 ], [ -103.602702089108703, 30.25035315189406 ], [ -103.602613010457233, 30.250291840235541 ], [ -103.602618117478812, 30.250356044990252 ], [ -103.602636632404568, 30.250426835287595 ], [ -103.60271765970792, 30.2504795680615 ], [ -103.602783302962422, 30.250490484807749 ], [ -103.602894198386508, 30.25056209991973 ], [ -103.602820723142273, 30.250584239721714 ], [ -103.602617302992826, 30.250528452876022 ], [ -103.602333793203513, 30.250351705992482 ], [ -103.60230150650365, 30.250360843306225 ], [ -103.602298027813177, 30.250421141585299 ], [ -103.602052219430277, 30.25056643970732 ], [ -103.601874295176145, 30.250353674681527 ], [ -103.601866548701793, 30.250270683308738 ], [ -103.601684471179354, 30.250342476826894 ], [ -103.601670503708633, 30.250331668261268 ], [ -103.601664032173247, 30.250347249984923 ], [ -103.601597482852256, 30.250331205464288 ], [ -103.601572370320397, 30.250326913441043 ], [ -103.601580062801162, 30.250298286796635 ], [ -103.601599926512151, 30.250291183227603 ], [ -103.601613067764646, 30.250271069570477 ], [ -103.60158498896493, 30.250151768118911 ], [ -103.601608858503184, 30.249913365550057 ], [ -103.601703771179501, 30.249887756070645 ], [ -103.60192947683494, 30.249932204942336 ], [ -103.602171172539897, 30.249911026682657 ], [ -103.602095953017411, 30.250161054991892 ], [ -103.602182216163868, 30.25027206850967 ], [ -103.602334333892657, 30.250184688691245 ], [ -103.602564853116846, 30.250070003058706 ], [ -103.602565890510732, 30.250023103851237 ], [ -103.602494653323816, 30.250014033425181 ], [ -103.602521290903042, 30.249966361846816 ], [ -103.602543733204215, 30.249984305098092 ], [ -103.602583366908931, 30.249944569949822 ], [ -103.602618792231667, 30.249940482898744 ], [ -103.602651035363408, 30.249959398177207 ], [ -103.602631780059227, 30.249977335450161 ], [ -103.602629364263763, 30.250001737889463 ], [ -103.602699754327347, 30.249982731974452 ], [ -103.602788235591575, 30.249844543792399 ], [ -103.602863474188553, 30.24973881937029 ], [ -103.602910853360626, 30.249699405773029 ], [ -103.602946788748241, 30.249689697722992 ], [ -103.60302760231103, 30.249747881015015 ], [ -103.603043093202544, 30.249705469217691 ], [ -103.603090497434806, 30.249597878612942 ], [ -103.603110347676477, 30.249571169204792 ], [ -103.603147319267762, 30.249557668725895 ], [ -103.603079929075449, 30.249551456691197 ], [ -103.602922832007451, 30.249374330654486 ], [ -103.602595146328966, 30.249298436170442 ], [ -103.602569679418608, 30.249703413598894 ], [ -103.60251136225601, 30.249678086973319 ], [ -103.602364112864308, 30.249518837168178 ], [ -103.60232794101033, 30.249488215491525 ], [ -103.602170587196895, 30.249666059037072 ], [ -103.601874905120326, 30.249572144749774 ], [ -103.601996723869121, 30.249492241619969 ], [ -103.602018296476629, 30.249454531530208 ], [ -103.60199502695167, 30.249437496882305 ], [ -103.601831334107573, 30.249279618433878 ], [ -103.601800182278367, 30.249267341018772 ], [ -103.601839071351066, 30.2490018198488 ], [ -103.601784863408668, 30.248847394695865 ], [ -103.601893771825985, 30.248855885336436 ], [ -103.601975340480223, 30.2488988698653 ], [ -103.601946223655148, 30.248708886874123 ], [ -103.602380769622982, 30.248805196209368 ], [ -103.602447646591912, 30.248865511415907 ], [ -103.602396321833226, 30.248664450187437 ], [ -103.602379897513032, 30.248547613202764 ], [ -103.602502579006412, 30.24850673234997 ], [ -103.602562475090167, 30.248704190457858 ], [ -103.602780078875355, 30.248904718902626 ], [ -103.602692574936896, 30.248906775795518 ], [ -103.602581410961619, 30.24907530552538 ], [ -103.602683938295655, 30.249075292292169 ], [ -103.602897600268818, 30.249110777491108 ], [ -103.602960208699329, 30.248901971258164 ], [ -103.603102539087473, 30.248962251338646 ], [ -103.603488011984879, 30.249524076642249 ] ] } },
{ "type": "Feature", "properties": { "route_id": "depot_30_R2", "closest_depot": "depot_30", "route_cells": "[np.int64(24), np.int64(16), np.int64(12), np.int64(2), np.int64(10), np.int64(9), np.int64(8), np.int64(0), np.int64(1), np.int64(4), np.int64(3), np.int64(11), np.int64(20), np.int64(28), np.int64(37), np.int64(35)]" }, "geometry": { "type": "LineString", "coordinates": [ [ -103.603488011984879, 30.249524076642249 ], [ -103.603248343048747, 30.249364785697797 ], [ -103.603273655242347, 30.249251722240299 ], [ -103.602982135472374, 30.248757343556992 ], [ -103.603074703775306, 30.248752054328616 ], [ -103.6031609070684, 30.248594012559295 ], [ -103.603214907671898, 30.248601924263216 ], [ -103.603243217068751, 30.248764352181038 ], [ -103.603757066632411, 30.248798167039055 ], [ -103.603760412965585, 30.248759627741165 ], [ -103.60379781184605, 30.248661796226241 ], [ -103.603852696313922, 30.248617116707422 ], [ -103.603773276264633, 30.248562341894345 ], [ -103.603856025499624, 30.248463838158955 ], [ -103.603936900593709, 30.248485683763359 ], [ -103.603992788659241, 30.248512475418146 ], [ -103.604046887163832, 30.248441318634196 ], [ -103.604026108721811, 30.248398764144721 ], [ -103.604093563619671, 30.248393036712706 ], [ -103.604284937080592, 30.248376440351116 ], [ -103.604285973253184, 30.2484015806914 ], [ -103.604287073015968, 30.248549391462387 ], [ -103.604418648778747, 30.248565105948821 ], [ -103.604487872511172, 30.248512372227186 ], [ -103.604519884610099, 30.248562455278837 ], [ -103.604673062216335, 30.248440313771507 ], [ -103.604734271256604, 30.248458961372641 ], [ -103.604942935429648, 30.248636251544212 ], [ -103.605102911827899, 30.248842955893892 ], [ -103.605116698511608, 30.248783222980773 ], [ -103.605337452616382, 30.248652360953781 ], [ -103.605374984616375, 30.248595008483136 ], [ -103.605408198782683, 30.248737456067573 ], [ -103.605371316896921, 30.248839686678387 ], [ -103.605317346949093, 30.2488442131223 ], [ -103.605340869348794, 30.248947895662823 ], [ -103.605350473240506, 30.249083857625649 ], [ -103.605252234571239, 30.249216919565225 ], [ -103.605398170819541, 30.249252187256229 ], [ -103.605292458739839, 30.249315329750932 ], [ -103.605355523291209, 30.249401601932714 ], [ -103.605487810027753, 30.2494723271137 ], [ -103.605484621941471, 30.24950877805755 ], [ -103.605460374658492, 30.249553373616084 ], [ -103.6054710113808, 30.249614952708445 ], [ -103.605400982186367, 30.249582424240248 ], [ -103.605344480917424, 30.249617473890307 ], [ -103.605217269635375, 30.249508950283129 ], [ -103.605220743673542, 30.249567298705255 ], [ -103.605234144750213, 30.249659478577556 ], [ -103.605273679430155, 30.249661014270682 ], [ -103.605365566978719, 30.249693774998097 ], [ -103.605281930347104, 30.249715390850458 ], [ -103.605212998719438, 30.249722560551181 ], [ -103.60526066403007, 30.249791961861302 ], [ -103.605260515129956, 30.249845285671014 ], [ -103.605225991047575, 30.249847220486171 ], [ -103.605138518017554, 30.249881455018787 ], [ -103.605105685928621, 30.250040488082828 ], [ -103.605011656540341, 30.249976504301998 ], [ -103.605028625933627, 30.249958762854934 ], [ -103.605049123874466, 30.249932189325779 ], [ -103.604992226301476, 30.249932870421706 ], [ -103.604933426194307, 30.249967839317712 ], [ -103.604981098264204, 30.24997615566804 ], [ -103.605007795967012, 30.250030782131848 ], [ -103.604971312700854, 30.250061259233998 ], [ -103.604996117899319, 30.250111577458927 ], [ -103.604897869581961, 30.250103623873372 ], [ -103.604879407838268, 30.250083290500733 ], [ -103.604922532591601, 30.250048365084048 ], [ -103.60487566593693, 30.250005179741965 ], [ -103.604838447971517, 30.250004709844422 ], [ -103.604737795461048, 30.250014868177036 ], [ -103.604768813078636, 30.250127772075128 ], [ -103.604699550829423, 30.250079814748606 ], [ -103.604670324467065, 30.250114874532528 ], [ -103.604632932978319, 30.250138906840636 ], [ -103.604653731314386, 30.250159621739694 ], [ -103.604716856612825, 30.250373697143637 ], [ -103.604629209239235, 30.250417954389931 ], [ -103.604572204869569, 30.250386870054772 ], [ -103.604543435652801, 30.250181097573982 ], [ -103.604485313264718, 30.250168348098629 ], [ -103.604509662239735, 30.250109486677047 ], [ -103.604604459284928, 30.250106084550644 ], [ -103.604621319390574, 30.250047642723988 ], [ -103.604673720580593, 30.249969825155592 ], [ -103.604740951313545, 30.249936218235952 ], [ -103.604770937305361, 30.24995792552167 ], [ -103.604839798946486, 30.249933979916968 ], [ -103.604883103199668, 30.249900725662346 ], [ -103.604936923497519, 30.249906989729165 ], [ -103.604935351708676, 30.24988645282491 ], [ -103.60497224806619, 30.249871061349527 ], [ -103.60495562022308, 30.249818653171495 ], [ -103.6050180944044, 30.249817081453664 ], [ -103.605065544468644, 30.249842716884277 ], [ -103.605107625866395, 30.24979241852833 ], [ -103.605026337972987, 30.24974304844746 ], [ -103.604951839953515, 30.249583904731253 ], [ -103.604801602802553, 30.249563238158117 ], [ -103.604839376095995, 30.249514744290508 ], [ -103.604775636434113, 30.249473679050705 ], [ -103.604844437643806, 30.249470820388169 ], [ -103.6048632274467, 30.249418766821737 ], [ -103.604897813085984, 30.249372484553497 ], [ -103.604974349625934, 30.24938124128569 ], [ -103.605230633130247, 30.249427705607769 ], [ -103.605199996516276, 30.249380679262373 ], [ -103.605149162291283, 30.24933863674978 ], [ -103.605118900154039, 30.249348583200028 ], [ -103.605083852506596, 30.249340589316244 ], [ -103.605021800269284, 30.249188292274194 ], [ -103.605061227668813, 30.249167819532765 ], [ -103.605096044987818, 30.249109212501416 ], [ -103.604978926907208, 30.249049562817014 ], [ -103.604986326967733, 30.248919610908679 ], [ -103.604645227941432, 30.248916003090503 ], [ -103.604649592222586, 30.248978334341206 ], [ -103.604611987416973, 30.249001216150397 ], [ -103.604578604577526, 30.249025973446781 ], [ -103.604521860028058, 30.249031742160145 ], [ -103.604511240878807, 30.248999858778053 ], [ -103.604444175016468, 30.249032861302187 ], [ -103.604403032816677, 30.249182004574756 ], [ -103.604514491200945, 30.24922274117527 ], [ -103.604612188697246, 30.249270826349342 ], [ -103.604612829808843, 30.249371414668449 ], [ -103.604662315031945, 30.249434724330843 ], [ -103.604565006462821, 30.249459892700969 ], [ -103.604617238287716, 30.249504175168152 ], [ -103.604658039350142, 30.24953558781602 ], [ -103.604584407291483, 30.249561200350207 ], [ -103.604457121314042, 30.249721416330949 ], [ -103.604450696064148, 30.249773488747472 ], [ -103.604486143776583, 30.249825397976839 ], [ -103.604517396528962, 30.249847306761591 ], [ -103.604573759972723, 30.249836433868328 ], [ -103.604589012813591, 30.249784088546846 ], [ -103.604564851437431, 30.249756137648298 ], [ -103.60462477962561, 30.249775648027917 ], [ -103.604620334083549, 30.249810279185649 ], [ -103.604644683059277, 30.249808307516361 ], [ -103.604689849295596, 30.249792738048878 ], [ -103.604721215273557, 30.249772662591887 ], [ -103.6047432669599, 30.249772412941908 ], [ -103.604751896869331, 30.249729619082817 ], [ -103.604722604557608, 30.249720709326752 ], [ -103.60473385358371, 30.249654763126419 ], [ -103.604803657414294, 30.249734689712472 ], [ -103.60485813123411, 30.249722484843051 ], [ -103.604905527093237, 30.2497512009591 ], [ -103.604876796879395, 30.249798074027407 ], [ -103.604889443729462, 30.249859252104756 ], [ -103.604862243978729, 30.249840559025085 ], [ -103.604805446960683, 30.249837378997924 ], [ -103.604757040769243, 30.249806472571724 ], [ -103.604702569523056, 30.249820400261925 ], [ -103.604690198463132, 30.249872445886194 ], [ -103.604653429946893, 30.249912081927175 ], [ -103.604632680754989, 30.249846538232099 ], [ -103.604568305886104, 30.249878412120776 ], [ -103.604530932385359, 30.249925365634571 ], [ -103.604490131106886, 30.249932315582797 ], [ -103.604503170489153, 30.24999634751013 ], [ -103.604455422578866, 30.249951095674259 ], [ -103.604415299384812, 30.249947611166927 ], [ -103.604483219641935, 30.249887582756546 ], [ -103.60445596017567, 30.249846726304924 ], [ -103.60442841118423, 30.249812274504681 ], [ -103.604410905504068, 30.24962505428179 ], [ -103.604307381583581, 30.249476218419471 ], [ -103.604216761316735, 30.249562213268316 ], [ -103.604213872380711, 30.249516862902166 ], [ -103.60418723840543, 30.249499327645594 ], [ -103.604001271884314, 30.249242092364817 ], [ -103.604105674831487, 30.249243893457972 ], [ -103.604308928904814, 30.249214883926104 ], [ -103.604263520575572, 30.248970161826602 ], [ -103.604195385913286, 30.248903817321033 ], [ -103.604350752089289, 30.248801355706124 ], [ -103.604414887654755, 30.248735946732545 ], [ -103.604391627904121, 30.248714638664399 ], [ -103.604066668930798, 30.248752297454107 ], [ -103.60404571306421, 30.248768254180341 ], [ -103.604044087274147, 30.248791632025956 ], [ -103.60401828383317, 30.248787657515471 ], [ -103.603979223906578, 30.248739185206979 ], [ -103.603978135278368, 30.24887845447396 ], [ -103.603924024249324, 30.248931119176088 ], [ -103.604020914377855, 30.248961061405215 ], [ -103.604023646560506, 30.249052055853639 ], [ -103.603945070463936, 30.24903568637238 ], [ -103.603944510202282, 30.249065818850106 ], [ -103.603782066453704, 30.249073418208305 ], [ -103.60375103617065, 30.249050044174513 ], [ -103.603642316312843, 30.24904916188585 ], [ -103.603496782006701, 30.248958215522325 ], [ -103.60335854478663, 30.249006714212335 ], [ -103.603334850184353, 30.249001665767505 ], [ -103.603350017627619, 30.249032385660335 ], [ -103.603315580412001, 30.249078780526375 ], [ -103.603459128619761, 30.249149264180634 ], [ -103.603422454620443, 30.249187980262022 ], [ -103.603527248064836, 30.249232381043676 ], [ -103.603454890225137, 30.249285168404199 ], [ -103.603488011984879, 30.249524076642249 ] ] } },
{ "type": "Feature", "properties": { "route_id": "depot_89_R3", "closest_depot": "depot_89", "route_cells": "[np.int64(89), np.int64(86), np.int64(80), np.int64(73), np.int64(69), np.int64(64), np.int64(67), np.int64(66), np.int64(76), np.int64(82), np.int64(75), np.int64(94), np.int64(93), np.int64(107), np.int64(109), np.int64(108), np.int64(101), np.int64(92)]" }, "geometry": { "type": "LineString", "coordinates": [ [ -103.600120677926313, 30.248889617514809 ], [ -103.600042039432424, 30.248894389245372 ], [ -103.599951088321106, 30.249058977882196 ], [ -103.599799122163716, 30.248993645040109 ], [ -103.599774263791332, 30.249013176295829 ], [ -103.599823944849234, 30.249288843749412 ], [ -103.599877668138305, 30.249367330197611 ], [ -103.599973504180696, 30.249358972101611 ], [ -103.600090218472346, 30.24928603070806 ], [ -103.600116299233093, 30.249242280942315 ], [ -103.600212412986153, 30.249328415105541 ], [ -103.60032404475875, 30.249299718761286 ], [ -103.600360579470944, 30.249235143080774 ], [ -103.6003693362929, 30.249280025686055 ], [ -103.600614665115771, 30.249429952778506 ], [ -103.600521883538946, 30.249504924186997 ], [ -103.600389065534529, 30.249453580170687 ], [ -103.600172464491976, 30.249426393413664 ], [ -103.599861574511408, 30.249430095844545 ], [ -103.599691470815728, 30.249337121917513 ], [ -103.599604448768545, 30.249376753584848 ], [ -103.599558557909432, 30.249342206268985 ], [ -103.599581274782963, 30.249292513612993 ], [ -103.599402410465132, 30.249257344638298 ], [ -103.59933578969985, 30.2494010577383 ], [ -103.599345798048901, 30.249418996246455 ], [ -103.599296483687425, 30.249409881094138 ], [ -103.599258503539048, 30.24952810312752 ], [ -103.598982429674109, 30.249437908226568 ], [ -103.598856791991707, 30.249307504782916 ], [ -103.598815058450583, 30.249324980626948 ], [ -103.598772089138379, 30.249279188495922 ], [ -103.598654640190105, 30.249224060535784 ], [ -103.598585075085154, 30.249231165724272 ], [ -103.598551900200604, 30.249234561264554 ], [ -103.598559814788999, 30.249371948825416 ], [ -103.598624183868907, 30.249398412431837 ], [ -103.598588396627846, 30.249522511314112 ], [ -103.598522037997014, 30.249845936539348 ], [ -103.598511296752747, 30.249882482534368 ], [ -103.598487603562333, 30.249889148356235 ], [ -103.598394517059432, 30.249965979736317 ], [ -103.598390352569254, 30.250043851124115 ], [ -103.59836937112469, 30.250074587509211 ], [ -103.598303475879334, 30.250083925253335 ], [ -103.598347919869255, 30.250133953515718 ], [ -103.598352300637984, 30.25015705962069 ], [ -103.598459055054477, 30.250087542045296 ], [ -103.598461411820608, 30.250045162551 ], [ -103.598501695555314, 30.250055799428853 ], [ -103.598566691040517, 30.250133730084922 ], [ -103.598531150742929, 30.250205580911071 ], [ -103.598563622910802, 30.250189226097813 ], [ -103.598620417917431, 30.250178415193055 ], [ -103.598649265696494, 30.250186683086156 ], [ -103.598667972702884, 30.250189614945711 ], [ -103.59869729857796, 30.250214885751639 ], [ -103.598727959765853, 30.250219168153745 ], [ -103.598692326835817, 30.250249371396571 ], [ -103.598669451394088, 30.250279255311206 ], [ -103.598711721458741, 30.250295030442633 ], [ -103.598727387007429, 30.250263410295858 ], [ -103.59876525683292, 30.250243558896695 ], [ -103.598812894560282, 30.250263275149891 ], [ -103.598838967498054, 30.250243415807478 ], [ -103.598859632534428, 30.25027117623457 ], [ -103.59888264718046, 30.250318809515669 ], [ -103.598911307271081, 30.250287097225694 ], [ -103.598946589712924, 30.250293040916116 ], [ -103.598932201882249, 30.250258599363416 ], [ -103.598890898220816, 30.250233364076045 ], [ -103.598879695548476, 30.250209870538107 ], [ -103.598910757990808, 30.250184020367772 ], [ -103.598766270770383, 30.250179747961454 ], [ -103.598757993710691, 30.250152036456839 ], [ -103.598734237680546, 30.25015432616155 ], [ -103.598720209057817, 30.250136514301442 ], [ -103.598699988057348, 30.250161718720662 ], [ -103.598683776633635, 30.250146522836484 ], [ -103.598689619267603, 30.250101866216873 ], [ -103.59864062963338, 30.250090333682717 ], [ -103.598644894026663, 30.250062719692618 ], [ -103.598589827023062, 30.250064250194161 ], [ -103.598553493097597, 30.250030433932427 ], [ -103.598547207005936, 30.250001993542 ], [ -103.598527537215119, 30.249980122402075 ], [ -103.598496323487453, 30.249948094632302 ], [ -103.598584729624363, 30.249892557428844 ], [ -103.598611906390488, 30.249939836426922 ], [ -103.598657933422771, 30.249942666069384 ], [ -103.598681157200716, 30.249962863939256 ], [ -103.598686351881426, 30.250008253773171 ], [ -103.598707662510407, 30.25002854400595 ], [ -103.598686100560656, 30.250059819626159 ], [ -103.5987558377619, 30.250083765513462 ], [ -103.59879244099217, 30.250134508552531 ], [ -103.598856654214671, 30.250151150412929 ], [ -103.598877863809093, 30.250140643932824 ], [ -103.598901257201348, 30.25012956625368 ], [ -103.598881866311459, 30.250110027687331 ], [ -103.598891447888562, 30.250092576792984 ], [ -103.598884356708894, 30.250066332859024 ], [ -103.598940418313887, 30.25003775922308 ], [ -103.598995873579199, 30.250039331648647 ], [ -103.599070417535003, 30.250061474049023 ], [ -103.59915015411282, 30.250051481369344 ], [ -103.599021737410524, 30.250109929186131 ], [ -103.598963610712431, 30.250155894322848 ], [ -103.599075200924958, 30.25015457414419 ], [ -103.59929965313593, 30.25028975371076 ], [ -103.59933029333645, 30.250306062079424 ], [ -103.599453014787429, 30.250263380874856 ], [ -103.599516330582986, 30.250214758025422 ], [ -103.599519252551872, 30.250121863145623 ], [ -103.599559309035541, 30.250152619342394 ], [ -103.599608186860081, 30.250197663830885 ], [ -103.599511800555888, 30.250303210936284 ], [ -103.599528305274859, 30.250403007821191 ], [ -103.599677241079959, 30.250403121323803 ], [ -103.599697909010388, 30.250407021220873 ], [ -103.599825983612746, 30.250437805241038 ], [ -103.599854561962431, 30.25041208107795 ], [ -103.599951652496514, 30.25046476877683 ], [ -103.600094679221627, 30.250453158261358 ], [ -103.600165261250297, 30.250386858453069 ], [ -103.600023667527537, 30.250329209543128 ], [ -103.600001714737928, 30.250207329500618 ], [ -103.599948617921925, 30.250190754689886 ], [ -103.60000597564202, 30.250039335260013 ], [ -103.600116962242538, 30.249994438186739 ], [ -103.600168744659754, 30.250053153988929 ], [ -103.600308097537621, 30.249998716573593 ], [ -103.60044436710136, 30.250024841252287 ], [ -103.60041204767181, 30.25005713172753 ], [ -103.600435061558528, 30.250067211591681 ], [ -103.600337267566729, 30.250224466974867 ], [ -103.600365130544873, 30.25022144427848 ], [ -103.600469555487265, 30.250199424652457 ], [ -103.600771895567959, 30.250094186838673 ], [ -103.60077863875722, 30.250129351637142 ], [ -103.600877508573518, 30.250210984200489 ], [ -103.600822088109041, 30.250257620078855 ], [ -103.600875165683632, 30.250292699915818 ], [ -103.600948783256243, 30.250242427844185 ], [ -103.601059282291615, 30.250219080070327 ], [ -103.601293615938076, 30.250245550265689 ], [ -103.601349063151218, 30.250359438827797 ], [ -103.60138491064474, 30.250429365244994 ], [ -103.601529944100363, 30.250195646678645 ], [ -103.601430163663181, 30.250035346635482 ], [ -103.601404828209041, 30.249940998147949 ], [ -103.601448657246152, 30.250008257094979 ], [ -103.601470637770618, 30.250016965277265 ], [ -103.601484671485025, 30.250029195325485 ], [ -103.60151368897715, 30.250007273765853 ], [ -103.60150907047003, 30.249958559749349 ], [ -103.60156116408217, 30.249884652436567 ], [ -103.601557392788678, 30.249848817929525 ], [ -103.601841876228718, 30.249592872109492 ], [ -103.601794901594431, 30.249559121203969 ], [ -103.601694313856754, 30.249406800349316 ], [ -103.601569282891887, 30.249403791580274 ], [ -103.601374889740612, 30.249480521785127 ], [ -103.601366258886628, 30.249312272867996 ], [ -103.601518271354891, 30.249200014929002 ], [ -103.601190996937675, 30.249148687507379 ], [ -103.601191962404044, 30.249124048002418 ], [ -103.600949713255162, 30.249026636656996 ], [ -103.600873275502778, 30.249123692773725 ], [ -103.600655892880312, 30.249284196927963 ], [ -103.600578288691253, 30.249275313730514 ], [ -103.600519703924832, 30.249233335810047 ], [ -103.600357242009608, 30.248902171386629 ], [ -103.600303999330578, 30.248726507130336 ], [ -103.599990165250759, 30.248768008891307 ], [ -103.600120677926313, 30.248889617514809 ] ] } },
{ "type": "Feature", "properties": { "route_id": "depot_89_R2", "closest_depot": "depot_89", "route_cells": "[np.int64(97), np.int64(99), np.int64(102), np.int64(105), np.int64(110), np.int64(112), np.int64(111), np.int64(104), np.int64(100), np.int64(96), np.int64(91), np.int64(83), np.int64(84), np.int64(74), np.int64(62), np.int64(68), np.int64(79)]" }, "geometry": { "type": "LineString", "coordinates": [ [ -103.600120677926313, 30.248889617514809 ], [ -103.600054818931497, 30.248670821365039 ], [ -103.600059846711446, 30.248627722509944 ], [ -103.60010045578673, 30.248611808562295 ], [ -103.599980938168585, 30.248509140458914 ], [ -103.600025911155441, 30.2484033701407 ], [ -103.599997425101634, 30.248343600667326 ], [ -103.599822987146425, 30.24840025208432 ], [ -103.599850791580735, 30.248428274929697 ], [ -103.599820558152928, 30.248496881238207 ], [ -103.599795356284773, 30.248555242008596 ], [ -103.599658829542591, 30.248384318780282 ], [ -103.599662165545681, 30.248350451085624 ], [ -103.599697959514259, 30.248297913906057 ], [ -103.599600147939498, 30.248326736269025 ], [ -103.599476158883519, 30.248198333282904 ], [ -103.599434645940406, 30.248158488332408 ], [ -103.599359878141158, 30.248189605148525 ], [ -103.599323528718742, 30.248170342216842 ], [ -103.599321304463558, 30.248209169873864 ], [ -103.599302038199966, 30.248238109363804 ], [ -103.599353949887941, 30.248278510354965 ], [ -103.598719728309078, 30.248416331100536 ], [ -103.598647695712117, 30.248552691211508 ], [ -103.598595607155303, 30.248627986909757 ], [ -103.598527388365497, 30.248679930943521 ], [ -103.598538090736852, 30.24879655004003 ], [ -103.598583033111026, 30.24887355049577 ], [ -103.598389583582076, 30.249027305103986 ], [ -103.598378222617157, 30.248987264032184 ], [ -103.598307231049986, 30.248969412519898 ], [ -103.598299965535602, 30.249113201428756 ], [ -103.59832605751609, 30.249126290669722 ], [ -103.598352312420673, 30.249158039691597 ], [ -103.598299116476795, 30.249165095586616 ], [ -103.598291278154193, 30.249291077657411 ], [ -103.598059387362596, 30.249353654721194 ], [ -103.598396273524301, 30.249495917722637 ], [ -103.598376405824567, 30.249545719481134 ], [ -103.598400277346556, 30.2495693381541 ], [ -103.598375892054619, 30.249632069829197 ], [ -103.598397301218938, 30.24965151019423 ], [ -103.598441353366965, 30.249653321758668 ], [ -103.598461577262199, 30.249619038340743 ], [ -103.598487729985976, 30.249625169575726 ], [ -103.598534116422186, 30.249627358132571 ], [ -103.598563770087026, 30.249637637283382 ], [ -103.598573943200137, 30.249728108995434 ], [ -103.598556774321153, 30.249759331235268 ], [ -103.598518556219375, 30.249742136833632 ], [ -103.598460955707608, 30.249718755196 ], [ -103.598395424049855, 30.2497265793683 ], [ -103.598430830700082, 30.249767894658159 ], [ -103.598443134647894, 30.249792794512381 ], [ -103.59839455067268, 30.249785679197277 ], [ -103.598263094114657, 30.24991341652672 ], [ -103.598448579281339, 30.249845303057636 ], [ -103.598449517762134, 30.24983034229308 ], [ -103.598502750413829, 30.249810301695479 ], [ -103.598690614317221, 30.249916009187459 ], [ -103.598736573757151, 30.24986837000586 ], [ -103.598770620138325, 30.249875556707419 ], [ -103.598771511077842, 30.249906722019283 ], [ -103.598880133502476, 30.249959372399033 ], [ -103.598913025589994, 30.249923990329986 ], [ -103.599029278928029, 30.249930025204876 ], [ -103.599054327942468, 30.249917363200826 ], [ -103.599091749094868, 30.249946173529128 ], [ -103.599126079093708, 30.249971936692852 ], [ -103.599261604134412, 30.249999511002262 ], [ -103.599337069597084, 30.249995007432275 ], [ -103.599259734926775, 30.249894371664659 ], [ -103.599598076655852, 30.249755006740294 ], [ -103.599850448686126, 30.249906518017688 ], [ -103.599902685936939, 30.249898205655747 ], [ -103.599949627918718, 30.249929724289196 ], [ -103.599985289405467, 30.249985309288963 ], [ -103.59995071306281, 30.249872991853362 ], [ -103.60006758477796, 30.249662893431964 ], [ -103.600161002420592, 30.249689183004193 ], [ -103.600141026117939, 30.249734623613691 ], [ -103.600242180044717, 30.249773893060425 ], [ -103.600413318611942, 30.249838846328192 ], [ -103.60046107794966, 30.249768063159568 ], [ -103.600448367074947, 30.249695145047266 ], [ -103.600394762784262, 30.24966621844672 ], [ -103.600493710917277, 30.249633580472711 ], [ -103.600658412753532, 30.249737104107869 ], [ -103.600753687455168, 30.24985642110147 ], [ -103.600778523160329, 30.249806238811093 ], [ -103.601110440626755, 30.249537713602933 ], [ -103.601188866011611, 30.249553127660107 ], [ -103.601582367148808, 30.248904565403905 ], [ -103.601187569153851, 30.248768802803561 ], [ -103.600971601578564, 30.248907706694155 ], [ -103.600888834797274, 30.248833886470365 ], [ -103.600597266633926, 30.248720800874295 ], [ -103.600434980026535, 30.248777337345029 ], [ -103.60042947662852, 30.248807399514909 ], [ -103.600417821965422, 30.248884700417296 ], [ -103.600351442441237, 30.249497530631114 ], [ -103.600281676932539, 30.249502787110806 ], [ -103.600210318200283, 30.249581343502555 ], [ -103.600136677596339, 30.249514531641438 ], [ -103.59999102665715, 30.2495968843436 ], [ -103.599969441250821, 30.249622113047476 ], [ -103.599824371845003, 30.249604384400598 ], [ -103.599552775882444, 30.249478231127522 ], [ -103.599495675651497, 30.249405626872388 ], [ -103.599404608514547, 30.249428293299694 ], [ -103.599351864842916, 30.249576866610312 ], [ -103.599063154086977, 30.249846054475285 ], [ -103.598955329029636, 30.249874262319217 ], [ -103.598926386533449, 30.249873457408459 ], [ -103.598905933946654, 30.249869616112619 ], [ -103.598832356775091, 30.249854687430314 ], [ -103.59877506888408, 30.249777314866673 ], [ -103.598794787858594, 30.249755726359329 ], [ -103.598682746212873, 30.249705707746092 ], [ -103.598436622384796, 30.249240501330537 ], [ -103.59849529115904, 30.249257067557682 ], [ -103.598579318028641, 30.249196506561592 ], [ -103.598839991190616, 30.249106611298089 ], [ -103.598882397982038, 30.248863148029773 ], [ -103.59883229079017, 30.248866722114791 ], [ -103.598732031305431, 30.248824410047479 ], [ -103.59872763571687, 30.248782287098582 ], [ -103.598763777170106, 30.248767336834415 ], [ -103.598808651176583, 30.248756188776866 ], [ -103.598755135760626, 30.248642780310938 ], [ -103.599068267734722, 30.248620143522029 ], [ -103.599136789972647, 30.248599137014054 ], [ -103.599137909794678, 30.248498753515733 ], [ -103.599209998068702, 30.248515787317363 ], [ -103.599240836582354, 30.248532459576424 ], [ -103.599214943670532, 30.248584557512427 ], [ -103.599261164952367, 30.248584934170747 ], [ -103.599292816026477, 30.248570574654103 ], [ -103.599307405314235, 30.248577871238712 ], [ -103.599305450568806, 30.248605439182239 ], [ -103.599338316589723, 30.248610788850435 ], [ -103.599372348620605, 30.248617398747932 ], [ -103.599403035789479, 30.248618415169489 ], [ -103.599451213805821, 30.248617176301412 ], [ -103.599421234536962, 30.248588240544311 ], [ -103.599392138207207, 30.248591647372489 ], [ -103.599341781104712, 30.248590583137798 ], [ -103.599321799820729, 30.24854057565404 ], [ -103.599363617444169, 30.248545842676823 ], [ -103.599418420743021, 30.248519654661845 ], [ -103.599475828115501, 30.248447826584044 ], [ -103.599538510806397, 30.248440344201342 ], [ -103.599587026897865, 30.248485322557858 ], [ -103.599583698422123, 30.248522488931243 ], [ -103.599565851877301, 30.248553269528962 ], [ -103.599712648338354, 30.248610029909045 ], [ -103.599654159320167, 30.248665586271706 ], [ -103.599665796300954, 30.248707505255826 ], [ -103.599737746648046, 30.248695572275849 ], [ -103.599810210136638, 30.248656024167367 ], [ -103.599862971663526, 30.248669181952756 ], [ -103.599901906791189, 30.248696287037188 ], [ -103.599894539558079, 30.248715412189981 ], [ -103.600120677926313, 30.248889617514809 ] ] } },
{ "type": "Feature", "properties": { "route_id": "depot_89_R1", "closest_depot": "depot_89", "route_cells": "[np.int64(90), np.int64(88), np.int64(95), np.int64(103), np.int64(106), np.int64(98)]" }, "geometry": { "type": "LineString", "coordinates": [ [ -103.600120677926313, 30.248889617514809 ], [ -103.599740381238135, 30.248864398784733 ], [ -103.599630051832335, 30.248979090406227 ], [ -103.599467537315434, 30.248868011534789 ], [ -103.599535183004448, 30.24870726900874 ], [ -103.599551578299625, 30.24868160392699 ], [ -103.599586538739658, 30.248676590556489 ], [ -103.599527828049162, 30.248658643106548 ], [ -103.599437366340268, 30.248688141608316 ], [ -103.599447273234873, 30.248771960421362 ], [ -103.599411229496297, 30.248813295110477 ], [ -103.599298153375713, 30.248757150411674 ], [ -103.599352469158788, 30.248655742748976 ], [ -103.599310553639498, 30.248649192481167 ], [ -103.599154250552346, 30.248408073116714 ], [ -103.599116196528811, 30.248377978537622 ], [ -103.599166239339425, 30.248367924337121 ], [ -103.599162820424397, 30.248218944766755 ], [ -103.599130395758777, 30.248219553977624 ], [ -103.599132299253938, 30.248193441481913 ], [ -103.599097783310739, 30.248126804060579 ], [ -103.59925668877429, 30.24802641658934 ], [ -103.599232737578987, 30.247988120572785 ], [ -103.599206931916854, 30.247976400235682 ], [ -103.599307509972604, 30.247932526327457 ], [ -103.599354423316612, 30.247906120946848 ], [ -103.599385976575789, 30.247876971688925 ], [ -103.599484086478611, 30.247728177085587 ], [ -103.599169456547514, 30.247738638185748 ], [ -103.59919537598158, 30.247652285673947 ], [ -103.599343100647587, 30.24754938932173 ], [ -103.599523533882888, 30.247528580981744 ], [ -103.599504520680398, 30.247467078384119 ], [ -103.599559253344609, 30.247459532713652 ], [ -103.599748876461803, 30.247377016274999 ], [ -103.599866993508471, 30.247337378487646 ], [ -103.599960009015476, 30.247317566501835 ], [ -103.600019561519304, 30.247327668891558 ], [ -103.600125377904902, 30.24733387621734 ], [ -103.59993871936598, 30.247396379934454 ], [ -103.599767127616019, 30.247602149649282 ], [ -103.599788732937569, 30.247612941711967 ], [ -103.599957503483026, 30.247630483458853 ], [ -103.600306245590602, 30.247567506244046 ], [ -103.600356117570769, 30.247648005720045 ], [ -103.600181351432482, 30.247749517863525 ], [ -103.600001154015231, 30.247857879920929 ], [ -103.599997504349872, 30.247967056825964 ], [ -103.600046776536288, 30.247969650879757 ], [ -103.600093245167955, 30.248091222546538 ], [ -103.600032279481482, 30.248105229985242 ], [ -103.599994560086245, 30.248126300476837 ], [ -103.599915615882111, 30.248113498254966 ], [ -103.599877371780437, 30.248060940581755 ], [ -103.599695300796824, 30.248023730237382 ], [ -103.599577245712339, 30.247966978086541 ], [ -103.599780096365777, 30.248116314105861 ], [ -103.599747592843244, 30.248158259668347 ], [ -103.599791233022984, 30.248276544154908 ], [ -103.599857101492702, 30.248218470662199 ], [ -103.59990260064437, 30.248202478893642 ], [ -103.599988575358083, 30.248248576795653 ], [ -103.600073101744115, 30.24832151900214 ], [ -103.600120677926313, 30.248889617514809 ] ] } },
{ "type": "Feature", "properties": { "route_id": "depot_89_R0", "closest_depot": "depot_89", "route_cells": "[np.int64(72), np.int64(63), np.int64(70), np.int64(71), np.int64(77), np.int64(65), np.int64(81), np.int64(87), np.int64(85)]" }, "geometry": { "type": "LineString", "coordinates": [ [ -103.600120677926313, 30.248889617514809 ], [ -103.600480703513085, 30.248571351985536 ], [ -103.600539775307027, 30.248609841681926 ], [ -103.60055995899171, 30.248546655784729 ], [ -103.600578241048595, 30.248552986142634 ], [ -103.600585065621516, 30.248539189970099 ], [ -103.600605483273796, 30.248535538262512 ], [ -103.600592023028327, 30.248512261326837 ], [ -103.600638203423273, 30.248491680567916 ], [ -103.600715503184986, 30.248542821409295 ], [ -103.600975608461383, 30.248412471385226 ], [ -103.601166543873106, 30.248423164208379 ], [ -103.601333859895774, 30.248511283663465 ], [ -103.601477454353798, 30.248507054206996 ], [ -103.601551408631707, 30.248494842220662 ], [ -103.601577498856827, 30.248517340819401 ], [ -103.601630462146986, 30.248736334763134 ], [ -103.601742041584359, 30.248636332956231 ], [ -103.601719746521056, 30.248584797294164 ], [ -103.601679181684943, 30.248265705227798 ], [ -103.601638273652, 30.248125641706693 ], [ -103.601534722355964, 30.248100413525542 ], [ -103.601493261981489, 30.24809061847548 ], [ -103.60152172315405, 30.248283369009055 ], [ -103.601444013731339, 30.248241129631229 ], [ -103.601328988628921, 30.24816971632319 ], [ -103.601295701711166, 30.248180213196676 ], [ -103.601303767209018, 30.248224958524077 ], [ -103.60127512683772, 30.248257575803599 ], [ -103.601194245809907, 30.2482512598854 ], [ -103.601100159219826, 30.247945794232816 ], [ -103.601129841923267, 30.247929497106689 ], [ -103.601094695449206, 30.247921206041642 ], [ -103.601001839593309, 30.247867435338456 ], [ -103.601122856415444, 30.247785207617699 ], [ -103.601077054011228, 30.247550970903667 ], [ -103.600934403319627, 30.247389260231802 ], [ -103.601009742125669, 30.247368233023067 ], [ -103.601086429583233, 30.247362028894692 ], [ -103.601080821082334, 30.247317312692427 ], [ -103.601114407280917, 30.247301149673483 ], [ -103.601072308053475, 30.247143609342054 ], [ -103.601012403908442, 30.247275974585619 ], [ -103.600946375547053, 30.247303913492772 ], [ -103.600853759217756, 30.247316578550592 ], [ -103.600817860409151, 30.247355021833091 ], [ -103.600879936146001, 30.247408244807445 ], [ -103.600859053347151, 30.247538123644652 ], [ -103.600687144825642, 30.247518705939413 ], [ -103.600649047874654, 30.247565936957134 ], [ -103.600619312327012, 30.247439068008919 ], [ -103.600588867882152, 30.247350932258058 ], [ -103.600733155487291, 30.247269149565195 ], [ -103.600726959051258, 30.247247841183007 ], [ -103.600798829456934, 30.247227030012766 ], [ -103.600755606356373, 30.247214333987607 ], [ -103.60073590436248, 30.247159495678353 ], [ -103.600389096374741, 30.247274923933162 ], [ -103.600352083066213, 30.247414071762798 ], [ -103.600400896774445, 30.247539913045994 ], [ -103.600376142672772, 30.247552932978309 ], [ -103.60040292096599, 30.247796182317263 ], [ -103.600462489357028, 30.247848949191283 ], [ -103.600509499958889, 30.247860942005413 ], [ -103.600558554650036, 30.247914092749088 ], [ -103.600501159389296, 30.247997381362897 ], [ -103.600441679708993, 30.248027513467125 ], [ -103.600263568905675, 30.248004731555653 ], [ -103.600363651137442, 30.24806308085077 ], [ -103.600428079604555, 30.248089327965683 ], [ -103.600397069862851, 30.248108914658765 ], [ -103.60038143463953, 30.248218336710277 ], [ -103.60047906676661, 30.2482348015083 ], [ -103.600489979943504, 30.248198475361956 ], [ -103.600593133305694, 30.248150405862702 ], [ -103.600629450119229, 30.248081783007851 ], [ -103.600729180959917, 30.247810008105777 ], [ -103.600762503954854, 30.247880496610438 ], [ -103.600876655996274, 30.247969986552711 ], [ -103.600895387492429, 30.248185369602659 ], [ -103.600953074111104, 30.248266489653215 ], [ -103.600920507355795, 30.248303435119524 ], [ -103.60079717112005, 30.248422544113971 ], [ -103.600698327106727, 30.248420432723453 ], [ -103.600594394080261, 30.248406561845336 ], [ -103.600426348374199, 30.248452897512355 ], [ -103.600120677926313, 30.248889617514809 ] ] } }
]
}
