{
"type": "FeatureCollection",
"name": "region_contour",
"crs": { "type": "name", "properties": { "name": "urn:ogc:def:crs:EPSG::32613" } },
"features": [
{ "type": "Feature", "properties": { "FID": 0 }, "geometry": { "type": "Polygon", "coordinates": [ [ [ 634351.957399261882529, 3347387.726420674007386 ], [ 634507.132342067663558, 3347378.722066290676594 ], [ 634507.18758412625175, 3347370.87778210407123 ], [ 634560.772381036775187, 3347369.275780403986573 ], [ 634560.827623095479794, 3347358.227492817677557 ], [ 634627.118093500263058, 3347350.327967192977667 ], [ 634688.602504800655879, 3347369.275780403986573 ], [ 634787.982968349126168, 3347364.414533866103739 ], [ 634854.273438753793016, 3347335.965193330310285 ], [ 634889.352146009681746, 3347258.682421661913395 ], [ 634775.056326620164327, 3347050.201234901789576 ], [ 634723.073549411143176, 3347026.392175152432173 ], [ 634651.866535784676671, 3346998.992421937640756 ], [ 634614.357177947298624, 3346997.224695923738182 ], [ 634287.931853262591176, 3347020.591824169736356 ], [ 634231.916405770578422, 3347035.948943915311247 ], [ 634212.250232883845456, 3347047.273438691161573 ], [ 634210.537729065050371, 3347056.940690329764038 ], [ 634185.844528839224949, 3347063.624904319643974 ], [ 634172.034014171571471, 3347185.597999276127666 ], [ 634178.994513564161025, 3347200.513187518343329 ], [ 634168.443280357983895, 3347224.267005829606205 ], [ 634164.852546544396318, 3347263.212219572160393 ], [ 634176.950557393254712, 3347295.804667952936143 ], [ 634244.732563382131048, 3347358.669424321036786 ], [ 634298.041149999364279, 3347379.219239232130349 ], [ 634351.957399261882529, 3347387.726420674007386 ] ] ] } }
]
}
