{
"type": "FeatureCollection",
"name": "voronoi_partition",
"crs": { "type": "name", "properties": { "name": "urn:ogc:def:crs:OGC:1.3:CRS84" } },
"features": [
{ "type": "Feature", "properties": { "cell_id": 0 }, "geometry": { "type": "Polygon", "coordinates": [ [ [ -103.604940243164961, 30.249657204123476 ], [ -103.605035403299198, 30.249390240180865 ], [ -103.605481041553531, 30.249344116673306 ], [ -103.605502112228976, 30.249573223592439 ], [ -103.605372244004741, 30.249865920578127 ], [ -103.605310408579541, 30.24991449934403 ], [ -103.604940243164961, 30.249657204123476 ] ] ] } },
{ "type": "Feature", "properties": { "cell_id": 1 }, "geometry": { "type": "Polygon", "coordinates": [ [ [ -103.604897538536292, 30.249227477243984 ], [ -103.605056797806299, 30.248913205945499 ], [ -103.605401956662519, 30.248936068579468 ], [ -103.60536314903122, 30.249006014275082 ], [ -103.605469762730962, 30.249221478768387 ], [ -103.605481041553531, 30.249344116673306 ], [ -103.605035403299198, 30.249390240180865 ], [ -103.604897538536292, 30.249227477243984 ] ] ] } },
{ "type": "Feature", "properties": { "cell_id": 2 }, "geometry": { "type": "Polygon", "coordinates": [ [ [ -103.605035403299198, 30.249390240180865 ], [ -103.604940243164961, 30.249657204123476 ], [ -103.6047198594609, 30.249723581196196 ], [ -103.60445531535845, 30.24954512063271 ], [ -103.604476291550014, 30.249292852137387 ], [ -103.604587207298053, 30.249213236452803 ], [ -103.604897538536292, 30.249227477243984 ], [ -103.605035403299198, 30.249390240180865 ] ] ] } },
{ "type": "Feature", "properties": { "cell_id": 3 }, "geometry": { "type": "Polygon", "coordinates": [ [ [ -103.605111731271165, 30.248438242378352 ], [ -103.604980141070229, 30.248367704388905 ], [ -103.60490646965178, 30.248042821913046 ], [ -103.605318139062803, 30.247845436456409 ], [ -103.605384023315082, 30.248412779536334 ], [ -103.605111731271165, 30.248438242378352 ] ] ] } },
{ "type": "Feature", "properties": { "cell_id": 4 }, "geometry": { "type": "Polygon", "coordinates": [ [ [ -103.605111731271165, 30.248438242378352 ], [ -103.604985042848881, 30.24882975828065 ], [ -103.604644898862261, 30.248765048087858 ], [ -103.604635938340309, 30.248468620404733 ], [ -103.604980141070229, 30.248367704388905 ], [ -103.605111731271165, 30.248438242378352 ] ] ] } },
{ "type": "Feature", "properties": { "cell_id": 5 }, "geometry": { "type": "Polygon", "coordinates": [ [ [ -103.605056797806299, 30.248913205945499 ], [ -103.604985042848881, 30.24882975828065 ], [ -103.605111731271165, 30.248438242378352 ], [ -103.605384023315082, 30.248412779536334 ], [ -103.605437378212883, 30.248872225752045 ], [ -103.605401956662519, 30.248936068579468 ], [ -103.605056797806299, 30.248913205945499 ] ] ] } },
{ "type": "Feature", "properties": { "cell_id": 6 }, "geometry": { "type": "Polygon", "coordinates": [ [ [ -103.605056797806299, 30.248913205945499 ], [ -103.604897538536292, 30.249227477243984 ], [ -103.604587207298053, 30.249213236452803 ], [ -103.604526336830304, 30.248844434789572 ], [ -103.604644898862261, 30.248765048087858 ], [ -103.604985042848881, 30.24882975828065 ], [ -103.605056797806299, 30.248913205945499 ] ] ] } },
{ "type": "Feature", "properties": { "cell_id": 7 }, "geometry": { "type": "Polygon", "coordinates": [ [ [ -103.60462083801545, 30.250017333365065 ], [ -103.6047198594609, 30.249723581196196 ], [ -103.604940243164961, 30.249657204123476 ], [ -103.605310408579541, 30.24991449934403 ], [ -103.604871393253859, 30.250259393585537 ], [ -103.60462083801545, 30.250017333365065 ] ] ] } },
{ "type": "Feature", "properties": { "cell_id": 8 }, "geometry": { "type": "Polygon", "coordinates": [ [ [ -103.604171692653765, 30.250398844817436 ], [ -103.604333727736034, 30.250052608028536 ], [ -103.60462083801545, 30.250017333365065 ], [ -103.604871393253859, 30.250259393585537 ], [ -103.604659880642885, 30.250425558300858 ], [ -103.604236955337441, 30.250561947575626 ], [ -103.604171692653765, 30.250398844817436 ] ] ] } },
{ "type": "Feature", "properties": { "cell_id": 9 }, "geometry": { "type": "Polygon", "coordinates": [ [ [ -103.604629218962529, 30.247740446421766 ], [ -103.604254458210278, 30.24779911101421 ], [ -103.60411078492973, 30.247649643808476 ], [ -103.60415830225736, 30.247363799929285 ], [ -103.604254099224448, 30.247370780715062 ], [ -103.604752876882415, 30.247495235140342 ], [ -103.604629218962529, 30.247740446421766 ] ] ] } },
{ "type": "Feature", "properties": { "cell_id": 10 }, "geometry": { "type": "Polygon", "coordinates": [ [ [ -103.60490646965178, 30.248042821913046 ], [ -103.604759805117396, 30.24799574288323 ], [ -103.604629218962529, 30.247740446421766 ], [ -103.604752876882415, 30.247495235140342 ], [ -103.604834203395328, 30.247515527429865 ], [ -103.605037113351841, 30.247619868860273 ], [ -103.60505367596096, 30.247707272315107 ], [ -103.60530941449295, 30.247770306953864 ], [ -103.605318139062803, 30.247845436456409 ], [ -103.60490646965178, 30.248042821913046 ] ] ] } },
{ "type": "Feature", "properties": { "cell_id": 11 }, "geometry": { "type": "Polygon", "coordinates": [ [ [ -103.604635938340309, 30.248468620404733 ], [ -103.604444383153435, 30.248348170601535 ], [ -103.60444817789778, 30.248199219367205 ], [ -103.604759805117396, 30.24799574288323 ], [ -103.60490646965178, 30.248042821913046 ], [ -103.604980141070229, 30.248367704388905 ], [ -103.604635938340309, 30.248468620404733 ] ] ] } },
{ "type": "Feature", "properties": { "cell_id": 12 }, "geometry": { "type": "Polygon", "coordinates": [ [ [ -103.604587207298053, 30.249213236452803 ], [ -103.604476291550014, 30.249292852137387 ], [ -103.604098635995257, 30.249174879520126 ], [ -103.604193846234253, 30.248803912910176 ], [ -103.604526336830304, 30.248844434789572 ], [ -103.604587207298053, 30.249213236452803 ] ] ] } },
{ "type": "Feature", "properties": { "cell_id": 13 }, "geometry": { "type": "Polygon", "coordinates": [ [ [ -103.604635938340309, 30.248468620404733 ], [ -103.604644898862261, 30.248765048087858 ], [ -103.604526336830304, 30.248844434789572 ], [ -103.604193846234253, 30.248803912910176 ], [ -103.604187048335135, 30.248796915710603 ], [ -103.604230222180433, 30.248455462843229 ], [ -103.604444383153435, 30.248348170601535 ], [ -103.604635938340309, 30.248468620404733 ] ] ] } },
{ "type": "Feature", "properties": { "cell_id": 14 }, "geometry": { "type": "Polygon", "coordinates": [ [ [ -103.6047198594609, 30.249723581196196 ], [ -103.60462083801545, 30.250017333365065 ], [ -103.604333727736034, 30.250052608028536 ], [ -103.604117723404926, 30.249858568370914 ], [ -103.604144499278377, 30.249676832626072 ], [ -103.60445531535845, 30.24954512063271 ], [ -103.6047198594609, 30.249723581196196 ] ] ] } },
{ "type": "Feature", "properties": { "cell_id": 15 }, "geometry": { "type": "Polygon", "coordinates": [ [ [ -103.604117723404926, 30.249858568370914 ], [ -103.603757221498284, 30.250001764152472 ], [ -103.603604368563865, 30.249897595195272 ], [ -103.603578400641766, 30.249575761037196 ], [ -103.603932132803294, 30.24950464995154 ], [ -103.604144499278377, 30.249676832626072 ], [ -103.604117723404926, 30.249858568370914 ] ] ] } },
{ "type": "Feature", "properties": { "cell_id": 16 }, "geometry": { "type": "Polygon", "coordinates": [ [ [ -103.604211287254699, 30.248006516448061 ], [ -103.604254458210278, 30.24779911101421 ], [ -103.604629218962529, 30.247740446421766 ], [ -103.604759805117396, 30.24799574288323 ], [ -103.60444817789778, 30.248199219367205 ], [ -103.604211287254699, 30.248006516448061 ] ] ] } },
{ "type": "Feature", "properties": { "cell_id": 17 }, "geometry": { "type": "Polygon", "coordinates": [ [ [ -103.60444817789778, 30.248199219367205 ], [ -103.604444383153435, 30.248348170601535 ], [ -103.604230222180433, 30.248455462843229 ], [ -103.603926769314143, 30.248342798216459 ], [ -103.603912619947934, 30.248123555575013 ], [ -103.604211287254699, 30.248006516448061 ], [ -103.60444817789778, 30.248199219367205 ] ] ] } },
{ "type": "Feature", "properties": { "cell_id": 18 }, "geometry": { "type": "Polygon", "coordinates": [ [ [ -103.604333727736034, 30.250052608028536 ], [ -103.604171692653765, 30.250398844817436 ], [ -103.603769619997223, 30.250218261742084 ], [ -103.603757221498284, 30.250001764152472 ], [ -103.604117723404926, 30.249858568370914 ], [ -103.604333727736034, 30.250052608028536 ] ] ] } },
{ "type": "Feature", "properties": { "cell_id": 19 }, "geometry": { "type": "Polygon", "coordinates": [ [ [ -103.60411078492973, 30.247649643808476 ], [ -103.603751232449298, 30.24774496743639 ], [ -103.603593514891884, 30.247630165857441 ], [ -103.603614019036158, 30.247324136320596 ], [ -103.60415830225736, 30.247363799929285 ], [ -103.60411078492973, 30.247649643808476 ] ] ] } },
{ "type": "Feature", "properties": { "cell_id": 20 }, "geometry": { "type": "Polygon", "coordinates": [ [ [ -103.60445531535845, 30.24954512063271 ], [ -103.604144499278377, 30.249676832626072 ], [ -103.603932132803294, 30.24950464995154 ], [ -103.604005015495773, 30.249215901495315 ], [ -103.604098635995257, 30.249174879520126 ], [ -103.604476291550014, 30.249292852137387 ], [ -103.60445531535845, 30.24954512063271 ] ] ] } },
{ "type": "Feature", "properties": { "cell_id": 21 }, "geometry": { "type": "Polygon", "coordinates": [ [ [ -103.604187048335135, 30.248796915710603 ], [ -103.603873870947226, 30.248754154478895 ], [ -103.603767723749584, 30.248472954319677 ], [ -103.603926769314143, 30.248342798216459 ], [ -103.604230222180433, 30.248455462843229 ], [ -103.604187048335135, 30.248796915710603 ] ] ] } },
{ "type": "Feature", "properties": { "cell_id": 22 }, "geometry": { "type": "Polygon", "coordinates": [ [ [ -103.604098635995257, 30.249174879520126 ], [ -103.604005015495773, 30.249215901495315 ], [ -103.603681555837653, 30.249081482760694 ], [ -103.603663144376895, 30.248914768272321 ], [ -103.603873870947226, 30.248754154478895 ], [ -103.604187048335135, 30.248796915710603 ], [ -103.604193846234253, 30.248803912910176 ], [ -103.604098635995257, 30.249174879520126 ] ] ] } },
{ "type": "Feature", "properties": { "cell_id": 23 }, "geometry": { "type": "Polygon", "coordinates": [ [ [ -103.603912619947934, 30.248123555575013 ], [ -103.603748163337968, 30.248020000508053 ], [ -103.603751232449298, 30.24774496743639 ], [ -103.60411078492973, 30.247649643808476 ], [ -103.604254458210278, 30.24779911101421 ], [ -103.604211287254699, 30.248006516448061 ], [ -103.603912619947934, 30.248123555575013 ] ] ] } },
{ "type": "Feature", "properties": { "cell_id": 24 }, "geometry": { "type": "Polygon", "coordinates": [ [ [ -103.603496590965733, 30.250431486420148 ], [ -103.603769619997223, 30.250218261742084 ], [ -103.604171692653765, 30.250398844817436 ], [ -103.604236955337441, 30.250561947575626 ], [ -103.604103307425959, 30.250605047352639 ], [ -103.60354195463583, 30.250675823114307 ], [ -103.603492769762966, 30.250672818732273 ], [ -103.603496590965733, 30.250431486420148 ] ] ] } },
{ "type": "Feature", "properties": { "cell_id": 25 }, "geometry": { "type": "Polygon", "coordinates": [ [ [ -103.602845175064232, 30.250348905339994 ], [ -103.603159584503587, 30.250178760171341 ], [ -103.603496590965733, 30.250431486420148 ], [ -103.603492769762966, 30.250672818732273 ], [ -103.602819248133628, 30.250631675830792 ], [ -103.602845175064232, 30.250348905339994 ] ] ] } },
{ "type": "Feature", "properties": { "cell_id": 26 }, "geometry": { "type": "Polygon", "coordinates": [ [ [ -103.603912619947934, 30.248123555575013 ], [ -103.603926769314143, 30.248342798216459 ], [ -103.603767723749584, 30.248472954319677 ], [ -103.603486212857419, 30.248458379144029 ], [ -103.603426684502182, 30.248412579404128 ], [ -103.603445250549285, 30.248113699287853 ], [ -103.603748163337968, 30.248020000508053 ], [ -103.603912619947934, 30.248123555575013 ] ] ] } },
{ "type": "Feature", "properties": { "cell_id": 27 }, "geometry": { "type": "Polygon", "coordinates": [ [ [ -103.604005015495773, 30.249215901495315 ], [ -103.603932132803294, 30.24950464995154 ], [ -103.603578400641766, 30.249575761037196 ], [ -103.603562503768188, 30.249565081254673 ], [ -103.603490905649366, 30.249230135891498 ], [ -103.603681555837653, 30.249081482760694 ], [ -103.604005015495773, 30.249215901495315 ] ] ] } },
{ "type": "Feature", "properties": { "cell_id": 28 }, "geometry": { "type": "Polygon", "coordinates": [ [ [ -103.603873870947226, 30.248754154478895 ], [ -103.603663144376895, 30.248914768272321 ], [ -103.603444075559523, 30.248798940809149 ], [ -103.603486212857419, 30.248458379144029 ], [ -103.603767723749584, 30.248472954319677 ], [ -103.603873870947226, 30.248754154478895 ] ] ] } },
{ "type": "Feature", "properties": { "cell_id": 29 }, "geometry": { "type": "Polygon", "coordinates": [ [ [ -103.603769619997223, 30.250218261742084 ], [ -103.603496590965733, 30.250431486420148 ], [ -103.603159584503587, 30.250178760171341 ], [ -103.603188996447599, 30.25002120961598 ], [ -103.603604368563865, 30.249897595195272 ], [ -103.603757221498284, 30.250001764152472 ], [ -103.603769619997223, 30.250218261742084 ] ] ] } },
{ "type": "Feature", "properties": { "cell_id": 30 }, "geometry": { "type": "Polygon", "coordinates": [ [ [ -103.603074815004561, 30.247586862851254 ], [ -103.602770951680725, 30.247710954689882 ], [ -103.602553257205102, 30.247560494617964 ], [ -103.602573244571062, 30.247248285484002 ], [ -103.603101330196665, 30.247286773000496 ], [ -103.603074815004561, 30.247586862851254 ] ] ] } },
{ "type": "Feature", "properties": { "cell_id": 31 }, "geometry": { "type": "Polygon", "coordinates": [ [ [ -103.603604368563865, 30.249897595195272 ], [ -103.603188996447599, 30.25002120961598 ], [ -103.603033341513353, 30.24982309425878 ], [ -103.603143098666465, 30.249596842551497 ], [ -103.603562503768188, 30.249565081254673 ], [ -103.603578400641766, 30.249575761037196 ], [ -103.603604368563865, 30.249897595195272 ] ] ] } },
{ "type": "Feature", "properties": { "cell_id": 32 }, "geometry": { "type": "Polygon", "coordinates": [ [ [ -103.603663144376895, 30.248914768272321 ], [ -103.603681555837653, 30.249081482760694 ], [ -103.603490905649366, 30.249230135891498 ], [ -103.60322262474287, 30.249175462810026 ], [ -103.603115171096121, 30.248883358464553 ], [ -103.603444075559523, 30.248798940809149 ], [ -103.603663144376895, 30.248914768272321 ] ] ] } },
{ "type": "Feature", "properties": { "cell_id": 33 }, "geometry": { "type": "Polygon", "coordinates": [ [ [ -103.603748163337968, 30.248020000508053 ], [ -103.603445250549285, 30.248113699287853 ], [ -103.60325648137902, 30.24799209242547 ], [ -103.603285333843715, 30.247731597987453 ], [ -103.603593514891884, 30.247630165857441 ], [ -103.603751232449298, 30.24774496743639 ], [ -103.603748163337968, 30.248020000508053 ] ] ] } },
{ "type": "Feature", "properties": { "cell_id": 34 }, "geometry": { "type": "Polygon", "coordinates": [ [ [ -103.603444075559523, 30.248798940809149 ], [ -103.603115171096121, 30.248883358464553 ], [ -103.603075671867131, 30.24886393518581 ], [ -103.603127689623022, 30.248456262475795 ], [ -103.603426684502182, 30.248412579404128 ], [ -103.603486212857419, 30.248458379144029 ], [ -103.603444075559523, 30.248798940809149 ] ] ] } },
{ "type": "Feature", "properties": { "cell_id": 35 }, "geometry": { "type": "Polygon", "coordinates": [ [ [ -103.603426684502182, 30.248412579404128 ], [ -103.603127689623022, 30.248456262475795 ], [ -103.602940126479595, 30.248351625785546 ], [ -103.602996163679492, 30.248076787948168 ], [ -103.60325648137902, 30.24799209242547 ], [ -103.603445250549285, 30.248113699287853 ], [ -103.603426684502182, 30.248412579404128 ] ] ] } },
{ "type": "Feature", "properties": { "cell_id": 36 }, "geometry": { "type": "Polygon", "coordinates": [ [ [ -103.603490905649366, 30.249230135891498 ], [ -103.603562503768188, 30.249565081254673 ], [ -103.603143098666465, 30.249596842551497 ], [ -103.603012427277903, 30.24938022633544 ], [ -103.60322262474287, 30.249175462810026 ], [ -103.603490905649366, 30.249230135891498 ] ] ] } },
{ "type": "Feature", "properties": { "cell_id": 37 }, "geometry": { "type": "Polygon", "coordinates": [ [ [ -103.603033341513353, 30.24982309425878 ], [ -103.602641792070798, 30.249824811888061 ], [ -103.602597748863289, 30.249464934868257 ], [ -103.602752042092519, 30.249338586584738 ], [ -103.603012427277903, 30.24938022633544 ], [ -103.603143098666465, 30.249596842551497 ], [ -103.603033341513353, 30.24982309425878 ] ] ] } },
{ "type": "Feature", "properties": { "cell_id": 38 }, "geometry": { "type": "Polygon", "coordinates": [ [ [ -103.602024306229097, 30.247571572543322 ], [ -103.601763029744177, 30.247652212146583 ], [ -103.601510525186256, 30.247452870986155 ], [ -103.601519176489973, 30.247171457294037 ], [ -103.602066161313445, 30.247211326618825 ], [ -103.602024306229097, 30.247571572543322 ] ] ] } },
{ "type": "Feature", "properties": { "cell_id": 39 }, "geometry": { "type": "Polygon", "coordinates": [ [ [ -103.603593514891884, 30.247630165857441 ], [ -103.603285333843715, 30.247731597987453 ], [ -103.603074815004561, 30.247586862851254 ], [ -103.603101330196665, 30.247286773000496 ], [ -103.603614019036158, 30.247324136320596 ], [ -103.603593514891884, 30.247630165857441 ] ] ] } },
{ "type": "Feature", "properties": { "cell_id": 40 }, "geometry": { "type": "Polygon", "coordinates": [ [ [ -103.603115171096121, 30.248883358464553 ], [ -103.60322262474287, 30.249175462810026 ], [ -103.603012427277903, 30.24938022633544 ], [ -103.602752042092519, 30.249338586584738 ], [ -103.602693298392396, 30.249107696653883 ], [ -103.602946940998308, 30.248869472321189 ], [ -103.603075671867131, 30.24886393518581 ], [ -103.603115171096121, 30.248883358464553 ] ] ] } },
{ "type": "Feature", "properties": { "cell_id": 41 }, "geometry": { "type": "Polygon", "coordinates": [ [ [ -103.603075671867131, 30.24886393518581 ], [ -103.602946940998308, 30.248869472321189 ], [ -103.602683843359415, 30.248659689182052 ], [ -103.602765464790835, 30.248409538189428 ], [ -103.602940126479595, 30.248351625785546 ], [ -103.603127689623022, 30.248456262475795 ], [ -103.603075671867131, 30.24886393518581 ] ] ] } },
{ "type": "Feature", "properties": { "cell_id": 42 }, "geometry": { "type": "Polygon", "coordinates": [ [ [ -103.60325648137902, 30.24799209242547 ], [ -103.602996163679492, 30.248076787948168 ], [ -103.602758968685478, 30.24791810948085 ], [ -103.602770951680725, 30.247710954689882 ], [ -103.603074815004561, 30.247586862851254 ], [ -103.603285333843715, 30.247731597987453 ], [ -103.60325648137902, 30.24799209242547 ] ] ] } },
{ "type": "Feature", "properties": { "cell_id": 43 }, "geometry": { "type": "Polygon", "coordinates": [ [ [ -103.603159584503587, 30.250178760171341 ], [ -103.602845175064232, 30.250348905339994 ], [ -103.602560435650901, 30.250142707520233 ], [ -103.602577366297353, 30.249883365949376 ], [ -103.602641792070798, 30.249824811888061 ], [ -103.603033341513353, 30.24982309425878 ], [ -103.603188996447599, 30.25002120961598 ], [ -103.603159584503587, 30.250178760171341 ] ] ] } },
{ "type": "Feature", "properties": { "cell_id": 44 }, "geometry": { "type": "Polygon", "coordinates": [ [ [ -103.602204456572807, 30.250306509552914 ], [ -103.602560435650901, 30.250142707520233 ], [ -103.602845175064232, 30.250348905339994 ], [ -103.602819248133628, 30.250631675830792 ], [ -103.602146286017529, 30.250590563622165 ], [ -103.602204456572807, 30.250306509552914 ] ] ] } },
{ "type": "Feature", "properties": { "cell_id": 45 }, "geometry": { "type": "Polygon", "coordinates": [ [ [ -103.602996163679492, 30.248076787948168 ], [ -103.602940126479595, 30.248351625785546 ], [ -103.602765464790835, 30.248409538189428 ], [ -103.60248348035492, 30.248262556389587 ], [ -103.60245800834123, 30.248071546494625 ], [ -103.602758968685478, 30.24791810948085 ], [ -103.602996163679492, 30.248076787948168 ] ] ] } },
{ "type": "Feature", "properties": { "cell_id": 46 }, "geometry": { "type": "Polygon", "coordinates": [ [ [ -103.602597748863289, 30.249464934868257 ], [ -103.602247884935736, 30.249406404235575 ], [ -103.602170832356649, 30.249085442403594 ], [ -103.602375234176932, 30.248983138774935 ], [ -103.602693298392396, 30.249107696653883 ], [ -103.602752042092519, 30.249338586584738 ], [ -103.602597748863289, 30.249464934868257 ] ] ] } },
{ "type": "Feature", "properties": { "cell_id": 47 }, "geometry": { "type": "Polygon", "coordinates": [ [ [ -103.602693298392396, 30.249107696653883 ], [ -103.602375234176932, 30.248983138774935 ], [ -103.602434828794031, 30.248729028991075 ], [ -103.602683843359415, 30.248659689182052 ], [ -103.602946940998308, 30.248869472321189 ], [ -103.602693298392396, 30.249107696653883 ] ] ] } },
{ "type": "Feature", "properties": { "cell_id": 48 }, "geometry": { "type": "Polygon", "coordinates": [ [ [ -103.602765464790835, 30.248409538189428 ], [ -103.602683843359415, 30.248659689182052 ], [ -103.602434828794031, 30.248729028991075 ], [ -103.602172867143651, 30.248506349582847 ], [ -103.60248348035492, 30.248262556389587 ], [ -103.602765464790835, 30.248409538189428 ] ] ] } },
{ "type": "Feature", "properties": { "cell_id": 49 }, "geometry": { "type": "Polygon", "coordinates": [ [ [ -103.602758968685478, 30.24791810948085 ], [ -103.60245800834123, 30.248071546494625 ], [ -103.6022471040895, 30.247959090687178 ], [ -103.602227000227188, 30.247690648039921 ], [ -103.602553257205102, 30.247560494617964 ], [ -103.602770951680725, 30.247710954689882 ], [ -103.602758968685478, 30.24791810948085 ] ] ] } },
{ "type": "Feature", "properties": { "cell_id": 50 }, "geometry": { "type": "Polygon", "coordinates": [ [ [ -103.602641792070798, 30.249824811888061 ], [ -103.602577366297353, 30.249883365949376 ], [ -103.602088744002543, 30.249785579415072 ], [ -103.602031039750997, 30.249608758474697 ], [ -103.602247884935736, 30.249406404235575 ], [ -103.602597748863289, 30.249464934868257 ], [ -103.602641792070798, 30.249824811888061 ] ] ] } },
{ "type": "Feature", "properties": { "cell_id": 51 }, "geometry": { "type": "Polygon", "coordinates": [ [ [ -103.599084659984285, 30.250116551132489 ], [ -103.599434161127249, 30.250231178398113 ], [ -103.599444819123718, 30.250440042439717 ], [ -103.599014011216312, 30.25041712589999 ], [ -103.598934243737801, 30.250386389691005 ], [ -103.599084659984285, 30.250116551132489 ] ] ] } },
{ "type": "Feature", "properties": { "cell_id": 52 }, "geometry": { "type": "Polygon", "coordinates": [ [ [ -103.601649521300502, 30.250081825944317 ], [ -103.601936937842794, 30.250037043933098 ], [ -103.602204456572807, 30.250306509552914 ], [ -103.602146286017529, 30.250590563622165 ], [ -103.601930614656922, 30.250577387216087 ], [ -103.601931042836057, 30.250506613331293 ], [ -103.601499723367226, 30.250490807642439 ], [ -103.601649521300502, 30.250081825944317 ] ] ] } },
{ "type": "Feature", "properties": { "cell_id": 53 }, "geometry": { "type": "Polygon", "coordinates": [ [ [ -103.602434828794031, 30.248729028991075 ], [ -103.602375234176932, 30.248983138774935 ], [ -103.602170832356649, 30.249085442403594 ], [ -103.601999865353648, 30.249034576846832 ], [ -103.601918786444884, 30.248658032849729 ], [ -103.602128663876627, 30.248504264045955 ], [ -103.602172867143651, 30.248506349582847 ], [ -103.602434828794031, 30.248729028991075 ] ] ] } },
{ "type": "Feature", "properties": { "cell_id": 54 }, "geometry": { "type": "Polygon", "coordinates": [ [ [ -103.60248348035492, 30.248262556389587 ], [ -103.602172867143651, 30.248506349582847 ], [ -103.602128663876627, 30.248504264045955 ], [ -103.601887053808909, 30.248128335524147 ], [ -103.6022471040895, 30.247959090687178 ], [ -103.60245800834123, 30.248071546494625 ], [ -103.60248348035492, 30.248262556389587 ] ] ] } },
{ "type": "Feature", "properties": { "cell_id": 55 }, "geometry": { "type": "Polygon", "coordinates": [ [ [ -103.602560435650901, 30.250142707520233 ], [ -103.602204456572807, 30.250306509552914 ], [ -103.601936937842794, 30.250037043933098 ], [ -103.602088744002543, 30.249785579415072 ], [ -103.602577366297353, 30.249883365949376 ], [ -103.602560435650901, 30.250142707520233 ] ] ] } },
{ "type": "Feature", "properties": { "cell_id": 56 }, "geometry": { "type": "Polygon", "coordinates": [ [ [ -103.602553257205102, 30.247560494617964 ], [ -103.602227000227188, 30.247690648039921 ], [ -103.602024306229097, 30.247571572543322 ], [ -103.602066161313445, 30.247211326618825 ], [ -103.602573244571062, 30.247248285484002 ], [ -103.602553257205102, 30.247560494617964 ] ] ] } },
{ "type": "Feature", "properties": { "cell_id": 57 }, "geometry": { "type": "Polygon", "coordinates": [ [ [ -103.601887053808909, 30.248128335524147 ], [ -103.60185984861198, 30.248122254075657 ], [ -103.601684511776583, 30.247865740509571 ], [ -103.601763029744177, 30.247652212146583 ], [ -103.602024306229097, 30.247571572543322 ], [ -103.602227000227188, 30.247690648039921 ], [ -103.6022471040895, 30.247959090687178 ], [ -103.601887053808909, 30.248128335524147 ] ] ] } },
{ "type": "Feature", "properties": { "cell_id": 58 }, "geometry": { "type": "Polygon", "coordinates": [ [ [ -103.602247884935736, 30.249406404235575 ], [ -103.602031039750997, 30.249608758474697 ], [ -103.601681196329196, 30.249493454814104 ], [ -103.601716614894059, 30.249144522001476 ], [ -103.601999865353648, 30.249034576846832 ], [ -103.602170832356649, 30.249085442403594 ], [ -103.602247884935736, 30.249406404235575 ] ] ] } },
{ "type": "Feature", "properties": { "cell_id": 59 }, "geometry": { "type": "Polygon", "coordinates": [ [ [ -103.602128663876627, 30.248504264045955 ], [ -103.601918786444884, 30.248658032849729 ], [ -103.601563944697972, 30.248616768454209 ], [ -103.601545243724516, 30.248321612923689 ], [ -103.60185984861198, 30.248122254075657 ], [ -103.601887053808909, 30.248128335524147 ], [ -103.602128663876627, 30.248504264045955 ] ] ] } },
{ "type": "Feature", "properties": { "cell_id": 60 }, "geometry": { "type": "Polygon", "coordinates": [ [ [ -103.601999865353648, 30.249034576846832 ], [ -103.601716614894059, 30.249144522001476 ], [ -103.601498343777394, 30.249022723724451 ], [ -103.601502955385826, 30.248664140066303 ], [ -103.601563944697972, 30.248616768454209 ], [ -103.601918786444884, 30.248658032849729 ], [ -103.601999865353648, 30.249034576846832 ] ] ] } },
{ "type": "Feature", "properties": { "cell_id": 61 }, "geometry": { "type": "Polygon", "coordinates": [ [ [ -103.602088744002543, 30.249785579415072 ], [ -103.601936937842794, 30.250037043933098 ], [ -103.601649521300502, 30.250081825944317 ], [ -103.601441727654517, 30.249892783087439 ], [ -103.601572216108281, 30.249545810293277 ], [ -103.601681196329196, 30.249493454814104 ], [ -103.602031039750997, 30.249608758474697 ], [ -103.602088744002543, 30.249785579415072 ] ] ] } },
{ "type": "Feature", "properties": { "cell_id": 62 }, "geometry": { "type": "Polygon", "coordinates": [ [ [ -103.60185984861198, 30.248122254075657 ], [ -103.601545243724516, 30.248321612923689 ], [ -103.601237415476319, 30.248178362994185 ], [ -103.601301980622225, 30.247911374764865 ], [ -103.601684511776583, 30.247865740509571 ], [ -103.60185984861198, 30.248122254075657 ] ] ] } },
{ "type": "Feature", "properties": { "cell_id": 63 }, "geometry": { "type": "Polygon", "coordinates": [ [ [ -103.599897540102759, 30.25015040628201 ], [ -103.600107022381778, 30.249983318578401 ], [ -103.60038285854489, 30.25006219687636 ], [ -103.600444144881777, 30.250370166260158 ], [ -103.600046090996585, 30.250472024314352 ], [ -103.599939050213479, 30.250466330978355 ], [ -103.599897540102759, 30.25015040628201 ] ] ] } },
{ "type": "Feature", "properties": { "cell_id": 64 }, "geometry": { "type": "Polygon", "coordinates": [ [ [ -103.601499723367226, 30.250490807642439 ], [ -103.601374425811585, 30.250486215850458 ], [ -103.601375263905226, 30.250386536845081 ], [ -103.600988986990956, 30.250342383777916 ], [ -103.600991296658151, 30.250087873860455 ], [ -103.601154570762802, 30.24991677150113 ], [ -103.601441727654517, 30.249892783087439 ], [ -103.601649521300502, 30.250081825944317 ], [ -103.601499723367226, 30.250490807642439 ] ] ] } },
{ "type": "Feature", "properties": { "cell_id": 65 }, "geometry": { "type": "Polygon", "coordinates": [ [ [ -103.600987420214054, 30.247585314285502 ], [ -103.600580373990027, 30.2475188547327 ], [ -103.600530118271607, 30.247133908375712 ], [ -103.60086517298295, 30.247123784423042 ], [ -103.601037053340136, 30.247136313773794 ], [ -103.600987420214054, 30.247585314285502 ] ] ] } },
{ "type": "Feature", "properties": { "cell_id": 66 }, "geometry": { "type": "Polygon", "coordinates": [ [ [ -103.601716614894059, 30.249144522001476 ], [ -103.601681196329196, 30.249493454814104 ], [ -103.601572216108281, 30.249545810293277 ], [ -103.601099536432315, 30.249371991454986 ], [ -103.601065187329468, 30.249238322529209 ], [ -103.601132076352499, 30.249135541151727 ], [ -103.601498343777394, 30.249022723724451 ], [ -103.601716614894059, 30.249144522001476 ] ] ] } },
{ "type": "Feature", "properties": { "cell_id": 67 }, "geometry": { "type": "Polygon", "coordinates": [ [ [ -103.601502955385826, 30.248664140066303 ], [ -103.601091485569242, 30.248639373700527 ], [ -103.60104384351412, 30.248266351580796 ], [ -103.601237415476319, 30.248178362994185 ], [ -103.601545243724516, 30.248321612923689 ], [ -103.601563944697972, 30.248616768454209 ], [ -103.601502955385826, 30.248664140066303 ] ] ] } },
{ "type": "Feature", "properties": { "cell_id": 68 }, "geometry": { "type": "Polygon", "coordinates": [ [ [ -103.601684511776583, 30.247865740509571 ], [ -103.601301980622225, 30.247911374764865 ], [ -103.601093837770236, 30.247671112227522 ], [ -103.601510525186256, 30.247452870986155 ], [ -103.601763029744177, 30.247652212146583 ], [ -103.601684511776583, 30.247865740509571 ] ] ] } },
{ "type": "Feature", "properties": { "cell_id": 69 }, "geometry": { "type": "Polygon", "coordinates": [ [ [ -103.601301980622225, 30.247911374764865 ], [ -103.601237415476319, 30.248178362994185 ], [ -103.60104384351412, 30.248266351580796 ], [ -103.600786277549204, 30.248194545194465 ], [ -103.600702770323693, 30.248037445965164 ], [ -103.601059525784834, 30.247662163583936 ], [ -103.601093837770236, 30.247671112227522 ], [ -103.601301980622225, 30.247911374764865 ] ] ] } },
{ "type": "Feature", "properties": { "cell_id": 70 }, "geometry": { "type": "Polygon", "coordinates": [ [ [ -103.601498343777394, 30.249022723724451 ], [ -103.601132076352499, 30.249135541151727 ], [ -103.600979133006831, 30.248734456930244 ], [ -103.601091485569242, 30.248639373700527 ], [ -103.601502955385826, 30.248664140066303 ], [ -103.601498343777394, 30.249022723724451 ] ] ] } },
{ "type": "Feature", "properties": { "cell_id": 71 }, "geometry": { "type": "Polygon", "coordinates": [ [ [ -103.60038285854489, 30.25006219687636 ], [ -103.600571803906846, 30.249922553567913 ], [ -103.600991296658151, 30.250087873860455 ], [ -103.600988986990956, 30.250342383777916 ], [ -103.600687423408758, 30.2503079129831 ], [ -103.600444144881777, 30.250370166260158 ], [ -103.60038285854489, 30.25006219687636 ] ] ] } },
{ "type": "Feature", "properties": { "cell_id": 72 }, "geometry": { "type": "Polygon", "coordinates": [ [ [ -103.601441727654517, 30.249892783087439 ], [ -103.601154570762802, 30.24991677150113 ], [ -103.600960809629456, 30.249592070188282 ], [ -103.601099536432315, 30.249371991454986 ], [ -103.601572216108281, 30.249545810293277 ], [ -103.601441727654517, 30.249892783087439 ] ] ] } },
{ "type": "Feature", "properties": { "cell_id": 73 }, "geometry": { "type": "Polygon", "coordinates": [ [ [ -103.601132076352499, 30.249135541151727 ], [ -103.601065187329468, 30.249238322529209 ], [ -103.600633318785768, 30.249171182540856 ], [ -103.600544308609145, 30.248900810660093 ], [ -103.600694954219378, 30.248733564349223 ], [ -103.600979133006831, 30.248734456930244 ], [ -103.601132076352499, 30.249135541151727 ] ] ] } },
{ "type": "Feature", "properties": { "cell_id": 74 }, "geometry": { "type": "Polygon", "coordinates": [ [ [ -103.600979133006831, 30.248734456930244 ], [ -103.600694954219378, 30.248733564349223 ], [ -103.600545248421682, 30.248459844006589 ], [ -103.600786277549204, 30.248194545194465 ], [ -103.60104384351412, 30.248266351580796 ], [ -103.601091485569242, 30.248639373700527 ], [ -103.600979133006831, 30.248734456930244 ] ] ] } },
{ "type": "Feature", "properties": { "cell_id": 75 }, "geometry": { "type": "Polygon", "coordinates": [ [ [ -103.601154570762802, 30.24991677150113 ], [ -103.600991296658151, 30.250087873860455 ], [ -103.600571803906846, 30.249922553567913 ], [ -103.600592976260828, 30.24965363486875 ], [ -103.600960809629456, 30.249592070188282 ], [ -103.601154570762802, 30.24991677150113 ] ] ] } },
{ "type": "Feature", "properties": { "cell_id": 76 }, "geometry": { "type": "Polygon", "coordinates": [ [ [ -103.601510525186256, 30.247452870986155 ], [ -103.601093837770236, 30.247671112227522 ], [ -103.601059525784834, 30.247662163583936 ], [ -103.600987420214054, 30.247585314285502 ], [ -103.601037053340136, 30.247136313773794 ], [ -103.601519176489973, 30.247171457294037 ], [ -103.601510525186256, 30.247452870986155 ] ] ] } },
{ "type": "Feature", "properties": { "cell_id": 77 }, "geometry": { "type": "Polygon", "coordinates": [ [ [ -103.601059525784834, 30.247662163583936 ], [ -103.600702770323693, 30.248037445965164 ], [ -103.600504781908356, 30.247956790910205 ], [ -103.600460540015817, 30.247608945552397 ], [ -103.600580373990027, 30.2475188547327 ], [ -103.600987420214054, 30.247585314285502 ], [ -103.601059525784834, 30.247662163583936 ] ] ] } },
{ "type": "Feature", "properties": { "cell_id": 78 }, "geometry": { "type": "Polygon", "coordinates": [ [ [ -103.601099536432315, 30.249371991454986 ], [ -103.600960809629456, 30.249592070188282 ], [ -103.600592976260828, 30.24965363486875 ], [ -103.600441030186317, 30.249526448694834 ], [ -103.60043476768449, 30.249371641878199 ], [ -103.600633318785768, 30.249171182540856 ], [ -103.601065187329468, 30.249238322529209 ], [ -103.601099536432315, 30.249371991454986 ] ] ] } },
{ "type": "Feature", "properties": { "cell_id": 79 }, "geometry": { "type": "Polygon", "coordinates": [ [ [ -103.600571803906846, 30.249922553567913 ], [ -103.60038285854489, 30.25006219687636 ], [ -103.600107022381778, 30.249983318578401 ], [ -103.600010808458151, 30.249695300349838 ], [ -103.600441030186317, 30.249526448694834 ], [ -103.600592976260828, 30.24965363486875 ], [ -103.600571803906846, 30.249922553567913 ] ] ] } },
{ "type": "Feature", "properties": { "cell_id": 80 }, "geometry": { "type": "Polygon", "coordinates": [ [ [ -103.600694954219378, 30.248733564349223 ], [ -103.600544308609145, 30.248900810660093 ], [ -103.600214140575545, 30.248880777631594 ], [ -103.600082021705788, 30.248665865079751 ], [ -103.600224954854909, 30.248423375887647 ], [ -103.600545248421682, 30.248459844006589 ], [ -103.600694954219378, 30.248733564349223 ] ] ] } },
{ "type": "Feature", "properties": { "cell_id": 81 }, "geometry": { "type": "Polygon", "coordinates": [ [ [ -103.600545248421682, 30.248459844006589 ], [ -103.600224954854909, 30.248423375887647 ], [ -103.600134184408148, 30.248269088271023 ], [ -103.600247028897144, 30.248042577291457 ], [ -103.600504781908356, 30.247956790910205 ], [ -103.600702770323693, 30.248037445965164 ], [ -103.600786277549204, 30.248194545194465 ], [ -103.600545248421682, 30.248459844006589 ] ] ] } },
{ "type": "Feature", "properties": { "cell_id": 82 }, "geometry": { "type": "Polygon", "coordinates": [ [ [ -103.599434161127249, 30.250231178398113 ], [ -103.599588819096653, 30.250059352497338 ], [ -103.599897540102759, 30.25015040628201 ], [ -103.599939050213479, 30.250466330978355 ], [ -103.599444819123718, 30.250440042439717 ], [ -103.599434161127249, 30.250231178398113 ] ] ] } },
{ "type": "Feature", "properties": { "cell_id": 83 }, "geometry": { "type": "Polygon", "coordinates": [ [ [ -103.600580373990027, 30.2475188547327 ], [ -103.600460540015817, 30.247608945552397 ], [ -103.600148600728517, 30.247571426893447 ], [ -103.600008478683677, 30.247285784871018 ], [ -103.600475185189509, 30.24713556814169 ], [ -103.600530118271607, 30.247133908375712 ], [ -103.600580373990027, 30.2475188547327 ] ] ] } },
{ "type": "Feature", "properties": { "cell_id": 84 }, "geometry": { "type": "Polygon", "coordinates": [ [ [ -103.600247028897144, 30.248042577291457 ], [ -103.599976594634867, 30.24778445934173 ], [ -103.600148600728517, 30.247571426893447 ], [ -103.600460540015817, 30.247608945552397 ], [ -103.600504781908356, 30.247956790910205 ], [ -103.600247028897144, 30.248042577291457 ] ] ] } },
{ "type": "Feature", "properties": { "cell_id": 85 }, "geometry": { "type": "Polygon", "coordinates": [ [ [ -103.600633318785768, 30.249171182540856 ], [ -103.60043476768449, 30.249371641878199 ], [ -103.600023032856058, 30.249156428239804 ], [ -103.600214140575545, 30.248880777631594 ], [ -103.600544308609145, 30.248900810660093 ], [ -103.600633318785768, 30.249171182540856 ] ] ] } },
{ "type": "Feature", "properties": { "cell_id": 86 }, "geometry": { "type": "Polygon", "coordinates": [ [ [ -103.600134184408148, 30.248269088271023 ], [ -103.599804350987966, 30.2482329649139 ], [ -103.599715384339092, 30.247848173288574 ], [ -103.599738855739076, 30.247820222582437 ], [ -103.599976594634867, 30.24778445934173 ], [ -103.600247028897144, 30.248042577291457 ], [ -103.600134184408148, 30.248269088271023 ] ] ] } },
{ "type": "Feature", "properties": { "cell_id": 87 }, "geometry": { "type": "Polygon", "coordinates": [ [ [ -103.600023032856058, 30.249156428239804 ], [ -103.599963747029648, 30.249172889930048 ], [ -103.599646494862327, 30.248935236938845 ], [ -103.599719869795123, 30.248680502043143 ], [ -103.600082021705788, 30.248665865079751 ], [ -103.600214140575545, 30.248880777631594 ], [ -103.600023032856058, 30.249156428239804 ] ] ] } },
{ "type": "Feature", "properties": { "cell_id": 88 }, "geometry": { "type": "Polygon", "coordinates": [ [ [ -103.60043476768449, 30.249371641878199 ], [ -103.600441030186317, 30.249526448694834 ], [ -103.600010808458151, 30.249695300349838 ], [ -103.600004242594622, 30.249692254685797 ], [ -103.599847808644384, 30.249346932079881 ], [ -103.599963747029648, 30.249172889930048 ], [ -103.600023032856058, 30.249156428239804 ], [ -103.60043476768449, 30.249371641878199 ] ] ] } },
{ "type": "Feature", "properties": { "cell_id": 89 }, "geometry": { "type": "Polygon", "coordinates": [ [ [ -103.600148600728517, 30.247571426893447 ], [ -103.599976594634867, 30.24778445934173 ], [ -103.599738855739076, 30.247820222582437 ], [ -103.599566053390873, 30.247438612758952 ], [ -103.599731763661111, 30.247374848878962 ], [ -103.600008478683677, 30.247285784871018 ], [ -103.600148600728517, 30.247571426893447 ] ] ] } },
{ "type": "Feature", "properties": { "cell_id": 90 }, "geometry": { "type": "Polygon", "coordinates": [ [ [ -103.600107022381778, 30.249983318578401 ], [ -103.599897540102759, 30.25015040628201 ], [ -103.599588819096653, 30.250059352497338 ], [ -103.599542190565828, 30.249907615519348 ], [ -103.599603113143615, 30.249783013668633 ], [ -103.600004242594622, 30.249692254685797 ], [ -103.600010808458151, 30.249695300349838 ], [ -103.600107022381778, 30.249983318578401 ] ] ] } },
{ "type": "Feature", "properties": { "cell_id": 91 }, "geometry": { "type": "Polygon", "coordinates": [ [ [ -103.600224954854909, 30.248423375887647 ], [ -103.600082021705788, 30.248665865079751 ], [ -103.599719869795123, 30.248680502043143 ], [ -103.599615911625037, 30.248564492686523 ], [ -103.599627162124605, 30.248356156509988 ], [ -103.599804350987966, 30.2482329649139 ], [ -103.600134184408148, 30.248269088271023 ], [ -103.600224954854909, 30.248423375887647 ] ] ] } },
{ "type": "Feature", "properties": { "cell_id": 92 }, "geometry": { "type": "Polygon", "coordinates": [ [ [ -103.599804350987966, 30.2482329649139 ], [ -103.599627162124605, 30.248356156509988 ], [ -103.599316532683332, 30.248198389914098 ], [ -103.599388617324792, 30.247930154810874 ], [ -103.599715384339092, 30.247848173288574 ], [ -103.599804350987966, 30.2482329649139 ] ] ] } },
{ "type": "Feature", "properties": { "cell_id": 93 }, "geometry": { "type": "Polygon", "coordinates": [ [ [ -103.599847808644384, 30.249346932079881 ], [ -103.599513899942508, 30.249398415209754 ], [ -103.59933235810162, 30.249164588003662 ], [ -103.599384901042711, 30.24903372508534 ], [ -103.599646494862327, 30.248935236938845 ], [ -103.599963747029648, 30.249172889930048 ], [ -103.599847808644384, 30.249346932079881 ] ] ] } },
{ "type": "Feature", "properties": { "cell_id": 94 }, "geometry": { "type": "Polygon", "coordinates": [ [ [ -103.599738855739076, 30.247820222582437 ], [ -103.599715384339092, 30.247848173288574 ], [ -103.599388617324792, 30.247930154810874 ], [ -103.599098520976412, 30.247722381050497 ], [ -103.599188559218405, 30.247583868146478 ], [ -103.599566053390873, 30.247438612758952 ], [ -103.599738855739076, 30.247820222582437 ] ] ] } },
{ "type": "Feature", "properties": { "cell_id": 95 }, "geometry": { "type": "Polygon", "coordinates": [ [ [ -103.599542190565828, 30.249907615519348 ], [ -103.599137768391287, 30.249883773464795 ], [ -103.599111689863349, 30.249618275293845 ], [ -103.599449544679374, 30.249543047786627 ], [ -103.599603113143615, 30.249783013668633 ], [ -103.599542190565828, 30.249907615519348 ] ] ] } },
{ "type": "Feature", "properties": { "cell_id": 96 }, "geometry": { "type": "Polygon", "coordinates": [ [ [ -103.600004242594622, 30.249692254685797 ], [ -103.599603113143615, 30.249783013668633 ], [ -103.599449544679374, 30.249543047786627 ], [ -103.599513899942508, 30.249398415209754 ], [ -103.599847808644384, 30.249346932079881 ], [ -103.600004242594622, 30.249692254685797 ] ] ] } },
{ "type": "Feature", "properties": { "cell_id": 97 }, "geometry": { "type": "Polygon", "coordinates": [ [ [ -103.599449544679374, 30.249543047786627 ], [ -103.599111689863349, 30.249618275293845 ], [ -103.598978546488055, 30.249530715651705 ], [ -103.599061654781195, 30.249241880863828 ], [ -103.59933235810162, 30.249164588003662 ], [ -103.599513899942508, 30.249398415209754 ], [ -103.599449544679374, 30.249543047786627 ] ] ] } },
{ "type": "Feature", "properties": { "cell_id": 98 }, "geometry": { "type": "Polygon", "coordinates": [ [ [ -103.599646494862327, 30.248935236938845 ], [ -103.599384901042711, 30.24903372508534 ], [ -103.599099433626591, 30.248724734219657 ], [ -103.599107498809374, 30.248660618682738 ], [ -103.599615911625037, 30.248564492686523 ], [ -103.599719869795123, 30.248680502043143 ], [ -103.599646494862327, 30.248935236938845 ] ] ] } },
{ "type": "Feature", "properties": { "cell_id": 99 }, "geometry": { "type": "Polygon", "coordinates": [ [ [ -103.599434161127249, 30.250231178398113 ], [ -103.599084659984285, 30.250116551132489 ], [ -103.599044469280969, 30.249991003714573 ], [ -103.599137768391287, 30.249883773464795 ], [ -103.599542190565828, 30.249907615519348 ], [ -103.599588819096653, 30.250059352497338 ], [ -103.599434161127249, 30.250231178398113 ] ] ] } },
{ "type": "Feature", "properties": { "cell_id": 100 }, "geometry": { "type": "Polygon", "coordinates": [ [ [ -103.599627162124605, 30.248356156509988 ], [ -103.599615911625037, 30.248564492686523 ], [ -103.599107498809374, 30.248660618682738 ], [ -103.59908882347581, 30.248631206650124 ], [ -103.599157898224689, 30.248256526853961 ], [ -103.599316532683332, 30.248198389914098 ], [ -103.599627162124605, 30.248356156509988 ] ] ] } },
{ "type": "Feature", "properties": { "cell_id": 101 }, "geometry": { "type": "Polygon", "coordinates": [ [ [ -103.59933235810162, 30.249164588003662 ], [ -103.599061654781195, 30.249241880863828 ], [ -103.598798708229324, 30.249063555157459 ], [ -103.598795369026419, 30.24897149566365 ], [ -103.599099433626591, 30.248724734219657 ], [ -103.599384901042711, 30.24903372508534 ], [ -103.59933235810162, 30.249164588003662 ] ] ] } },
{ "type": "Feature", "properties": { "cell_id": 102 }, "geometry": { "type": "Polygon", "coordinates": [ [ [ -103.599388617324792, 30.247930154810874 ], [ -103.599316532683332, 30.248198389914098 ], [ -103.599157898224689, 30.248256526853961 ], [ -103.598845054272871, 30.248112306277203 ], [ -103.599098520976412, 30.247722381050497 ], [ -103.599388617324792, 30.247930154810874 ] ] ] } },
{ "type": "Feature", "properties": { "cell_id": 103 }, "geometry": { "type": "Polygon", "coordinates": [ [ [ -103.599107498809374, 30.248660618682738 ], [ -103.599099433626591, 30.248724734219657 ], [ -103.598795369026419, 30.24897149566365 ], [ -103.598431375224621, 30.248748689149295 ], [ -103.59861298528034, 30.248469310669968 ], [ -103.59908882347581, 30.248631206650124 ], [ -103.599107498809374, 30.248660618682738 ] ] ] } },
{ "type": "Feature", "properties": { "cell_id": 104 }, "geometry": { "type": "Polygon", "coordinates": [ [ [ -103.599137768391287, 30.249883773464795 ], [ -103.599044469280969, 30.249991003714573 ], [ -103.598744454847392, 30.249947946279253 ], [ -103.598649339380785, 30.249813565144905 ], [ -103.598864736994997, 30.249549197372104 ], [ -103.598978546488055, 30.249530715651705 ], [ -103.599111689863349, 30.249618275293845 ], [ -103.599137768391287, 30.249883773464795 ] ] ] } },
{ "type": "Feature", "properties": { "cell_id": 105 }, "geometry": { "type": "Polygon", "coordinates": [ [ [ -103.598744454847392, 30.249947946279253 ], [ -103.599044469280969, 30.249991003714573 ], [ -103.599084659984285, 30.250116551132489 ], [ -103.598934243737801, 30.250386389691005 ], [ -103.598572605103811, 30.250247041327317 ], [ -103.598744454847392, 30.249947946279253 ] ] ] } },
{ "type": "Feature", "properties": { "cell_id": 106 }, "geometry": { "type": "Polygon", "coordinates": [ [ [ -103.599157898224689, 30.248256526853961 ], [ -103.59908882347581, 30.248631206650124 ], [ -103.59861298528034, 30.248469310669968 ], [ -103.598845054272871, 30.248112306277203 ], [ -103.599157898224689, 30.248256526853961 ] ] ] } },
{ "type": "Feature", "properties": { "cell_id": 107 }, "geometry": { "type": "Polygon", "coordinates": [ [ [ -103.598864736994997, 30.249549197372104 ], [ -103.598532707127248, 30.249344468727944 ], [ -103.598526767782644, 30.24928439295288 ], [ -103.598798708229324, 30.249063555157459 ], [ -103.599061654781195, 30.249241880863828 ], [ -103.598978546488055, 30.249530715651705 ], [ -103.598864736994997, 30.249549197372104 ] ] ] } },
{ "type": "Feature", "properties": { "cell_id": 108 }, "geometry": { "type": "Polygon", "coordinates": [ [ [ -103.598526767782644, 30.24928439295288 ], [ -103.598532707127248, 30.249344468727944 ], [ -103.598375155936097, 30.249529518258424 ], [ -103.598022390736944, 30.249547282388164 ], [ -103.597974191366674, 30.249451986072671 ], [ -103.598206187617663, 30.249095102175076 ], [ -103.598526767782644, 30.24928439295288 ] ] ] } },
{ "type": "Feature", "properties": { "cell_id": 109 }, "geometry": { "type": "Polygon", "coordinates": [ [ [ -103.598506030516006, 30.249786899179863 ], [ -103.598649339380785, 30.249813565144905 ], [ -103.598744454847392, 30.249947946279253 ], [ -103.598572605103811, 30.250247041327317 ], [ -103.598328805183527, 30.250153098375581 ], [ -103.598224618648814, 30.249947110702546 ], [ -103.598506030516006, 30.249786899179863 ] ] ] } },
{ "type": "Feature", "properties": { "cell_id": 110 }, "geometry": { "type": "Polygon", "coordinates": [ [ [ -103.598864736994997, 30.249549197372104 ], [ -103.598649339380785, 30.249813565144905 ], [ -103.598506030516006, 30.249786899179863 ], [ -103.598375155936097, 30.249529518258424 ], [ -103.598532707127248, 30.249344468727944 ], [ -103.598864736994997, 30.249549197372104 ] ] ] } },
{ "type": "Feature", "properties": { "cell_id": 111 }, "geometry": { "type": "Polygon", "coordinates": [ [ [ -103.598795369026419, 30.24897149566365 ], [ -103.598798708229324, 30.249063555157459 ], [ -103.598526767782644, 30.24928439295288 ], [ -103.598206187617663, 30.249095102175076 ], [ -103.598431375224621, 30.248748689149295 ], [ -103.598795369026419, 30.24897149566365 ] ] ] } },
{ "type": "Feature", "properties": { "cell_id": 112 }, "geometry": { "type": "Polygon", "coordinates": [ [ [ -103.598375155936097, 30.249529518258424 ], [ -103.598506030516006, 30.249786899179863 ], [ -103.598224618648814, 30.249947110702546 ], [ -103.598022390736944, 30.249547282388164 ], [ -103.598375155936097, 30.249529518258424 ] ] ] } }
]
}
