{
"type": "FeatureCollection",
"name": "voronoi_centroids",
"crs": { "type": "name", "properties": { "name": "urn:ogc:def:crs:OGC:1.3:CRS84" } },
"features": [
{ "type": "Feature", "properties": { "cell_id": 0, "associated_depots": [ "depot_25" ], "closest_depot": "depot_25" }, "geometry": { "type": "Point", "coordinates": [ -103.605299072212347, 30.249473493424826 ] } },
{ "type": "Feature", "properties": { "cell_id": 1, "associated_depots": [ "depot_25" ], "closest_depot": "depot_25" }, "geometry": { "type": "Point", "coordinates": [ -103.604866753959243, 30.249397072100752 ] } },
{ "type": "Feature", "properties": { "cell_id": 2, "associated_depots": [ "depot_25" ], "closest_depot": "depot_25" }, "geometry": { "type": "Point", "coordinates": [ -103.60523412491446, 30.249095820962857 ] } },
{ "type": "Feature", "properties": { "cell_id": 3, "associated_depots": [ "depot_25" ], "closest_depot": "depot_25" }, "geometry": { "type": "Point", "coordinates": [ -103.605197095973679, 30.248703187628784 ] } },
{ "type": "Feature", "properties": { "cell_id": 4, "associated_depots": [ "depot_25" ], "closest_depot": "depot_25" }, "geometry": { "type": "Point", "coordinates": [ -103.604861735997943, 30.249018692345935 ] } },
{ "type": "Feature", "properties": { "cell_id": 5, "associated_depots": [ "depot_25" ], "closest_depot": "depot_25" }, "geometry": { "type": "Point", "coordinates": [ -103.605177055746992, 30.248310643395481 ] } },
{ "type": "Feature", "properties": { "cell_id": 6, "associated_depots": [ "depot_25" ], "closest_depot": "depot_25" }, "geometry": { "type": "Point", "coordinates": [ -103.605122028837286, 30.249815752270123 ] } },
{ "type": "Feature", "properties": { "cell_id": 7, "associated_depots": [ "depot_25" ], "closest_depot": "depot_25" }, "geometry": { "type": "Point", "coordinates": [ -103.604761931548651, 30.250126206382401 ] } },
{ "type": "Feature", "properties": { "cell_id": 8, "associated_depots": [ "depot_25" ], "closest_depot": "depot_25" }, "geometry": { "type": "Point", "coordinates": [ -103.604740408318008, 30.247714260189074 ] } },
{ "type": "Feature", "properties": { "cell_id": 9, "associated_depots": [ "depot_25" ], "closest_depot": "depot_25" }, "geometry": { "type": "Point", "coordinates": [ -103.60512092200014, 30.247923053774148 ] } },
{ "type": "Feature", "properties": { "cell_id": 10, "associated_depots": [ "depot_25" ], "closest_depot": "depot_25" }, "geometry": { "type": "Point", "coordinates": [ -103.604666164507833, 30.249739159072707 ] } },
{ "type": "Feature", "properties": { "cell_id": 11, "associated_depots": [ "depot_25" ], "closest_depot": "depot_25" }, "geometry": { "type": "Point", "coordinates": [ -103.604790495370324, 30.248511716231246 ] } },
{ "type": "Feature", "properties": { "cell_id": 12, "associated_depots": [ "depot_25" ], "closest_depot": "depot_25" }, "geometry": { "type": "Point", "coordinates": [ -103.604382998072367, 30.249101459242283 ] } },
{ "type": "Feature", "properties": { "cell_id": 13, "associated_depots": [ "depot_25" ], "closest_depot": "depot_25" }, "geometry": { "type": "Point", "coordinates": [ -103.604574437826017, 30.248800542626917 ] } },
{ "type": "Feature", "properties": { "cell_id": 14, "associated_depots": [ "depot_25" ], "closest_depot": "depot_25" }, "geometry": { "type": "Point", "coordinates": [ -103.604764744459402, 30.248137047799595 ] } },
{ "type": "Feature", "properties": { "cell_id": 15, "associated_depots": [ "depot_25" ], "closest_depot": "depot_25" }, "geometry": { "type": "Point", "coordinates": [ -103.604339194171558, 30.250354166448709 ] } },
{ "type": "Feature", "properties": { "cell_id": 16, "associated_depots": [ "depot_25" ], "closest_depot": "depot_25" }, "geometry": { "type": "Point", "coordinates": [ -103.604318511435096, 30.247621963577966 ] } },
{ "type": "Feature", "properties": { "cell_id": 17, "associated_depots": [ "depot_25" ], "closest_depot": "depot_25" }, "geometry": { "type": "Point", "coordinates": [ -103.604331857044784, 30.250003377351817 ] } },
{ "type": "Feature", "properties": { "cell_id": 18, "associated_depots": [ "depot_25" ], "closest_depot": "depot_25" }, "geometry": { "type": "Point", "coordinates": [ -103.604347643676064, 30.248106928706434 ] } },
{ "type": "Feature", "properties": { "cell_id": 19, "associated_depots": [ "depot_25" ], "closest_depot": "depot_25" }, "geometry": { "type": "Point", "coordinates": [ -103.604398575846318, 30.249425070229808 ] } },
{ "type": "Feature", "properties": { "cell_id": 20, "associated_depots": [ "depot_25" ], "closest_depot": "depot_25" }, "geometry": { "type": "Point", "coordinates": [ -103.604130710489869, 30.249688046815109 ] } },
{ "type": "Feature", "properties": { "cell_id": 21, "associated_depots": [ "depot_25" ], "closest_depot": "depot_25" }, "geometry": { "type": "Point", "coordinates": [ -103.604307671424181, 30.248517880704085 ] } },
{ "type": "Feature", "properties": { "cell_id": 22, "associated_depots": [ "depot_25" ], "closest_depot": "depot_25" }, "geometry": { "type": "Point", "coordinates": [ -103.603882205620224, 30.25007693711569 ] } },
{ "type": "Feature", "properties": { "cell_id": 23, "associated_depots": [ "depot_25", "depot_145" ], "closest_depot": "depot_25" }, "geometry": { "type": "Point", "coordinates": [ -103.603858934781485, 30.248372459883186 ] } },
{ "type": "Feature", "properties": { "cell_id": 24, "associated_depots": [ "depot_25", "depot_145" ], "closest_depot": "depot_25" }, "geometry": { "type": "Point", "coordinates": [ -103.604025929183706, 30.248837453990546 ] } },
{ "type": "Feature", "properties": { "cell_id": 25, "associated_depots": [ "depot_25", "depot_145" ], "closest_depot": "depot_25" }, "geometry": { "type": "Point", "coordinates": [ -103.603896565754795, 30.24926034303844 ] } },
{ "type": "Feature", "properties": { "cell_id": 26, "associated_depots": [ "depot_25" ], "closest_depot": "depot_25" }, "geometry": { "type": "Point", "coordinates": [ -103.603873912808041, 30.247534188879285 ] } },
{ "type": "Feature", "properties": { "cell_id": 27, "associated_depots": [ "depot_25" ], "closest_depot": "depot_25" }, "geometry": { "type": "Point", "coordinates": [ -103.603892300857595, 30.247944104024558 ] } },
{ "type": "Feature", "properties": { "cell_id": 28, "associated_depots": [ "depot_25" ], "closest_depot": "depot_25" }, "geometry": { "type": "Point", "coordinates": [ -103.603893744650122, 30.2504582962701 ] } },
{ "type": "Feature", "properties": { "cell_id": 29, "associated_depots": [ "depot_25" ], "closest_depot": "depot_25" }, "geometry": { "type": "Point", "coordinates": [ -103.603468403639297, 30.249989958225068 ] } },
{ "type": "Feature", "properties": { "cell_id": 30, "associated_depots": [ "depot_25", "depot_145" ], "closest_depot": "depot_25" }, "geometry": { "type": "Point", "coordinates": [ -103.603579589793569, 30.24884925340556 ] } },
{ "type": "Feature", "properties": { "cell_id": 31, "associated_depots": [ "depot_25", "depot_145" ], "closest_depot": "depot_145" }, "geometry": { "type": "Point", "coordinates": [ -103.603335414638664, 30.248016007961176 ] } },
{ "type": "Feature", "properties": { "cell_id": 32, "associated_depots": [ "depot_25" ], "closest_depot": "depot_25" }, "geometry": { "type": "Point", "coordinates": [ -103.603475025573729, 30.250439477467037 ] } },
{ "type": "Feature", "properties": { "cell_id": 33, "associated_depots": [ "depot_25", "depot_145" ], "closest_depot": "depot_25" }, "geometry": { "type": "Point", "coordinates": [ -103.603710664902565, 30.249637094717922 ] } },
{ "type": "Feature", "properties": { "cell_id": 34, "associated_depots": [ "depot_145" ], "closest_depot": "depot_145" }, "geometry": { "type": "Point", "coordinates": [ -103.602485578633519, 30.247438160054326 ] } },
{ "type": "Feature", "properties": { "cell_id": 35, "associated_depots": [ "depot_25", "depot_145" ], "closest_depot": "depot_25" }, "geometry": { "type": "Point", "coordinates": [ -103.603396078003783, 30.248470886378982 ] } },
{ "type": "Feature", "properties": { "cell_id": 36, "associated_depots": [ "depot_25", "depot_145" ], "closest_depot": "depot_25" }, "geometry": { "type": "Point", "coordinates": [ -103.603372480597812, 30.249206588318273 ] } },
{ "type": "Feature", "properties": { "cell_id": 37, "associated_depots": [ "depot_145" ], "closest_depot": "depot_145" }, "geometry": { "type": "Point", "coordinates": [ -103.603428625548489, 30.247556388905885 ] } },
{ "type": "Feature", "properties": { "cell_id": 38, "associated_depots": [ "depot_25" ], "closest_depot": "depot_25" }, "geometry": { "type": "Point", "coordinates": [ -103.603074672995547, 30.250456944932534 ] } },
{ "type": "Feature", "properties": { "cell_id": 39, "associated_depots": [ "depot_25", "depot_145" ], "closest_depot": "depot_25" }, "geometry": { "type": "Point", "coordinates": [ -103.603268116343159, 30.249586647143268 ] } },
{ "type": "Feature", "properties": { "cell_id": 40, "associated_depots": [ "depot_25", "depot_145" ], "closest_depot": "depot_25" }, "geometry": { "type": "Point", "coordinates": [ -103.602839282615975, 30.249248466382191 ] } },
{ "type": "Feature", "properties": { "cell_id": 41, "associated_depots": [ "depot_25", "depot_145" ], "closest_depot": "depot_25" }, "geometry": { "type": "Point", "coordinates": [ -103.603011593490933, 30.248832539971708 ] } },
{ "type": "Feature", "properties": { "cell_id": 42, "associated_depots": [ "depot_145" ], "closest_depot": "depot_145" }, "geometry": { "type": "Point", "coordinates": [ -103.602972717813273, 30.24753376465285 ] } },
{ "type": "Feature", "properties": { "cell_id": 43, "associated_depots": [ "depot_25", "depot_145" ], "closest_depot": "depot_25" }, "geometry": { "type": "Point", "coordinates": [ -103.603089417046007, 30.250058585482009 ] } },
{ "type": "Feature", "properties": { "cell_id": 44, "associated_depots": [ "depot_25", "depot_145" ], "closest_depot": "depot_25" }, "geometry": { "type": "Point", "coordinates": [ -103.602678442934661, 30.25007904784286 ] } },
{ "type": "Feature", "properties": { "cell_id": 45, "associated_depots": [ "depot_25", "depot_145" ], "closest_depot": "depot_25" }, "geometry": { "type": "Point", "coordinates": [ -103.60284944658143, 30.249676968613436 ] } },
{ "type": "Feature", "properties": { "cell_id": 46, "associated_depots": [ "depot_25", "depot_145" ], "closest_depot": "depot_145" }, "geometry": { "type": "Point", "coordinates": [ -103.60290622721115, 30.248391275616342 ] } },
{ "type": "Feature", "properties": { "cell_id": 47, "associated_depots": [ "depot_25", "depot_145" ], "closest_depot": "depot_145" }, "geometry": { "type": "Point", "coordinates": [ -103.602444466887178, 30.248868042989272 ] } },
{ "type": "Feature", "properties": { "cell_id": 48, "associated_depots": [ "depot_25", "depot_145" ], "closest_depot": "depot_145" }, "geometry": { "type": "Point", "coordinates": [ -103.602722033712823, 30.247968233418344 ] } },
{ "type": "Feature", "properties": { "cell_id": 49, "associated_depots": [ "depot_25", "depot_145" ], "closest_depot": "depot_145" }, "geometry": { "type": "Point", "coordinates": [ -103.602349774536478, 30.249307571111451 ] } },
{ "type": "Feature", "properties": { "cell_id": 50, "associated_depots": [ "depot_25" ], "closest_depot": "depot_25" }, "geometry": { "type": "Point", "coordinates": [ -103.602673267050477, 30.250445887159934 ] } },
{ "type": "Feature", "properties": { "cell_id": 51, "associated_depots": [ "depot_145" ], "closest_depot": "depot_145" }, "geometry": { "type": "Point", "coordinates": [ -103.60225106992479, 30.250431821828847 ] } },
{ "type": "Feature", "properties": { "cell_id": 52, "associated_depots": [ "depot_25", "depot_145" ], "closest_depot": "depot_145" }, "geometry": { "type": "Point", "coordinates": [ -103.602392996217503, 30.249713594283815 ] } },
{ "type": "Feature", "properties": { "cell_id": 53, "associated_depots": [ "depot_25", "depot_145" ], "closest_depot": "depot_145" }, "geometry": { "type": "Point", "coordinates": [ -103.602404273941985, 30.248443638675997 ] } },
{ "type": "Feature", "properties": { "cell_id": 54, "associated_depots": [ "depot_145" ], "closest_depot": "depot_145" }, "geometry": { "type": "Point", "coordinates": [ -103.60190360352297, 30.247396997448231 ] } },
{ "type": "Feature", "properties": { "cell_id": 55, "associated_depots": [ "depot_25", "depot_145" ], "closest_depot": "depot_145" }, "geometry": { "type": "Point", "coordinates": [ -103.602251480308183, 30.250080170494517 ] } },
{ "type": "Feature", "properties": { "cell_id": 56, "associated_depots": [ "depot_93", "depot_145" ], "closest_depot": "depot_145" }, "geometry": { "type": "Point", "coordinates": [ -103.601898293571821, 30.249063434089997 ] } },
{ "type": "Feature", "properties": { "cell_id": 57, "associated_depots": [ "depot_145" ], "closest_depot": "depot_145" }, "geometry": { "type": "Point", "coordinates": [ -103.602231745492531, 30.247772358994336 ] } },
{ "type": "Feature", "properties": { "cell_id": 58, "associated_depots": [ "depot_25", "depot_93", "depot_145" ], "closest_depot": "depot_145" }, "geometry": { "type": "Point", "coordinates": [ -103.601910896229001, 30.249535429049047 ] } },
{ "type": "Feature", "properties": { "cell_id": 59, "associated_depots": [ "depot_93", "depot_145" ], "closest_depot": "depot_145" }, "geometry": { "type": "Point", "coordinates": [ -103.601862392543666, 30.248627067310451 ] } },
{ "type": "Feature", "properties": { "cell_id": 60, "associated_depots": [ "depot_145" ], "closest_depot": "depot_145" }, "geometry": { "type": "Point", "coordinates": [ -103.601803554439527, 30.250336464583309 ] } },
{ "type": "Feature", "properties": { "cell_id": 61, "associated_depots": [ "depot_145" ], "closest_depot": "depot_145" }, "geometry": { "type": "Point", "coordinates": [ -103.601854571568836, 30.249947747625146 ] } },
{ "type": "Feature", "properties": { "cell_id": 62, "associated_depots": [ "depot_145" ], "closest_depot": "depot_145" }, "geometry": { "type": "Point", "coordinates": [ -103.602063302435027, 30.248162249007162 ] } },
{ "type": "Feature", "properties": { "cell_id": 63, "associated_depots": [ "depot_145" ], "closest_depot": "depot_145" }, "geometry": { "type": "Point", "coordinates": [ -103.601685407324339, 30.247811968745427 ] } },
{ "type": "Feature", "properties": { "cell_id": 64, "associated_depots": [ "depot_93", "depot_145" ], "closest_depot": "depot_145" }, "geometry": { "type": "Point", "coordinates": [ -103.60143634131714, 30.249320582232173 ] } },
{ "type": "Feature", "properties": { "cell_id": 65, "associated_depots": [ "depot_145" ], "closest_depot": "depot_145" }, "geometry": { "type": "Point", "coordinates": [ -103.601355900439941, 30.247379958012466 ] } },
{ "type": "Feature", "properties": { "cell_id": 66, "associated_depots": [ "depot_93", "depot_145" ], "closest_depot": "depot_145" }, "geometry": { "type": "Point", "coordinates": [ -103.601518036854117, 30.248281195663168 ] } },
{ "type": "Feature", "properties": { "cell_id": 67, "associated_depots": [ "depot_93", "depot_145" ], "closest_depot": "depot_145" }, "geometry": { "type": "Point", "coordinates": [ -103.601442357131205, 30.249772614605913 ] } },
{ "type": "Feature", "properties": { "cell_id": 68, "associated_depots": [ "depot_93", "depot_145" ], "closest_depot": "depot_145" }, "geometry": { "type": "Point", "coordinates": [ -103.601367181952156, 30.248829595094804 ] } },
{ "type": "Feature", "properties": { "cell_id": 69, "associated_depots": [ "depot_93" ], "closest_depot": "depot_93" }, "geometry": { "type": "Point", "coordinates": [ -103.600203475659697, 30.250252466482465 ] } },
{ "type": "Feature", "properties": { "cell_id": 70, "associated_depots": [ "depot_145" ], "closest_depot": "depot_145" }, "geometry": { "type": "Point", "coordinates": [ -103.601339987238077, 30.250198716964498 ] } },
{ "type": "Feature", "properties": { "cell_id": 71, "associated_depots": [ "depot_93", "depot_145" ], "closest_depot": "depot_145" }, "geometry": { "type": "Point", "coordinates": [ -103.601186435199153, 30.247830698773342 ] } },
{ "type": "Feature", "properties": { "cell_id": 72, "associated_depots": [ "depot_93", "depot_145" ], "closest_depot": "depot_93" }, "geometry": { "type": "Point", "coordinates": [ -103.600983304347764, 30.249706776539501 ] } },
{ "type": "Feature", "properties": { "cell_id": 73, "associated_depots": [ "depot_93" ], "closest_depot": "depot_93" }, "geometry": { "type": "Point", "coordinates": [ -103.600801181774386, 30.250116111062987 ] } },
{ "type": "Feature", "properties": { "cell_id": 74, "associated_depots": [ "depot_93", "depot_145" ], "closest_depot": "depot_145" }, "geometry": { "type": "Point", "coordinates": [ -103.601031491769831, 30.248301421343459 ] } },
{ "type": "Feature", "properties": { "cell_id": 75, "associated_depots": [ "depot_93", "depot_145" ], "closest_depot": "depot_93" }, "geometry": { "type": "Point", "coordinates": [ -103.600942329870009, 30.249229372363001 ] } },
{ "type": "Feature", "properties": { "cell_id": 76, "associated_depots": [ "depot_93", "depot_145" ], "closest_depot": "depot_145" }, "geometry": { "type": "Point", "coordinates": [ -103.600840459029016, 30.247367674469416 ] } },
{ "type": "Feature", "properties": { "cell_id": 77, "associated_depots": [ "depot_93", "depot_145" ], "closest_depot": "depot_93" }, "geometry": { "type": "Point", "coordinates": [ -103.600712250329238, 30.247857316691938 ] } },
{ "type": "Feature", "properties": { "cell_id": 78, "associated_depots": [ "depot_93", "depot_145" ], "closest_depot": "depot_93" }, "geometry": { "type": "Point", "coordinates": [ -103.600530691636109, 30.24951847900444 ] } },
{ "type": "Feature", "properties": { "cell_id": 79, "associated_depots": [ "depot_93", "depot_145" ], "closest_depot": "depot_93" }, "geometry": { "type": "Point", "coordinates": [ -103.600496456627212, 30.248984376232361 ] } },
{ "type": "Feature", "properties": { "cell_id": 80, "associated_depots": [ "depot_93", "depot_145" ], "closest_depot": "depot_93" }, "geometry": { "type": "Point", "coordinates": [ -103.600908341878252, 30.248753276663724 ] } },
{ "type": "Feature", "properties": { "cell_id": 81, "associated_depots": [ "depot_93", "depot_145" ], "closest_depot": "depot_93" }, "geometry": { "type": "Point", "coordinates": [ -103.600573446343105, 30.24846330086644 ] } },
{ "type": "Feature", "properties": { "cell_id": 82, "associated_depots": [ "depot_93" ], "closest_depot": "depot_93" }, "geometry": { "type": "Point", "coordinates": [ -103.600338240200841, 30.24989151031604 ] } },
{ "type": "Feature", "properties": { "cell_id": 83, "associated_depots": [ "depot_93", "depot_145" ], "closest_depot": "depot_93" }, "geometry": { "type": "Point", "coordinates": [ -103.600336204915166, 30.248120550795932 ] } },
{ "type": "Feature", "properties": { "cell_id": 84, "associated_depots": [ "depot_93", "depot_145" ], "closest_depot": "depot_93" }, "geometry": { "type": "Point", "coordinates": [ -103.600139057514426, 30.248561415029855 ] } },
{ "type": "Feature", "properties": { "cell_id": 85, "associated_depots": [ "depot_93", "depot_145" ], "closest_depot": "depot_93" }, "geometry": { "type": "Point", "coordinates": [ -103.600135272629984, 30.249313946539786 ] } },
{ "type": "Feature", "properties": { "cell_id": 86, "associated_depots": [ "depot_93" ], "closest_depot": "depot_93" }, "geometry": { "type": "Point", "coordinates": [ -103.599902564731494, 30.249700755444664 ] } },
{ "type": "Feature", "properties": { "cell_id": 87, "associated_depots": [ "depot_93" ], "closest_depot": "depot_93" }, "geometry": { "type": "Point", "coordinates": [ -103.600348196517828, 30.247377577421545 ] } },
{ "type": "Feature", "properties": { "cell_id": 88, "associated_depots": [ "depot_93" ], "closest_depot": "depot_93" }, "geometry": { "type": "Point", "coordinates": [ -103.600207702376139, 30.247741739979965 ] } },
{ "type": "Feature", "properties": { "cell_id": 89, "associated_depots": [ "depot_93" ], "closest_depot": "depot_93" }, "geometry": { "type": "Point", "coordinates": [ -103.599243276659337, 30.250214172237182 ] } },
{ "type": "Feature", "properties": { "cell_id": 90, "associated_depots": [ "depot_93" ], "closest_depot": "depot_93" }, "geometry": { "type": "Point", "coordinates": [ -103.59972679231889, 30.250194700998613 ] } },
{ "type": "Feature", "properties": { "cell_id": 91, "associated_depots": [ "depot_93" ], "closest_depot": "depot_93" }, "geometry": { "type": "Point", "coordinates": [ -103.599783352981007, 30.247532169710748 ] } },
{ "type": "Feature", "properties": { "cell_id": 92, "associated_depots": [ "depot_93" ], "closest_depot": "depot_93" }, "geometry": { "type": "Point", "coordinates": [ -103.599887433839569, 30.248263198664212 ] } },
{ "type": "Feature", "properties": { "cell_id": 93, "associated_depots": [ "depot_93" ], "closest_depot": "depot_93" }, "geometry": { "type": "Point", "coordinates": [ -103.60000861165048, 30.248924855495844 ] } },
{ "type": "Feature", "properties": { "cell_id": 94, "associated_depots": [ "depot_93" ], "closest_depot": "depot_93" }, "geometry": { "type": "Point", "coordinates": [ -103.59964784586505, 30.249253087815891 ] } },
{ "type": "Feature", "properties": { "cell_id": 95, "associated_depots": [ "depot_93" ], "closest_depot": "depot_93" }, "geometry": { "type": "Point", "coordinates": [ -103.599756775062517, 30.247914391721391 ] } },
{ "type": "Feature", "properties": { "cell_id": 96, "associated_depots": [ "depot_93" ], "closest_depot": "depot_93" }, "geometry": { "type": "Point", "coordinates": [ -103.599637569335371, 30.248684208069765 ] } },
{ "type": "Feature", "properties": { "cell_id": 97, "associated_depots": [ "depot_93" ], "closest_depot": "depot_93" }, "geometry": { "type": "Point", "coordinates": [ -103.59945423438667, 30.248251426542669 ] } },
{ "type": "Feature", "properties": { "cell_id": 98, "associated_depots": [ "depot_93" ], "closest_depot": "depot_93" }, "geometry": { "type": "Point", "coordinates": [ -103.599309711366629, 30.248975380755752 ] } },
{ "type": "Feature", "properties": { "cell_id": 99, "associated_depots": [ "depot_93" ], "closest_depot": "depot_93" }, "geometry": { "type": "Point", "coordinates": [ -103.599449461547934, 30.249740927626739 ] } },
{ "type": "Feature", "properties": { "cell_id": 100, "associated_depots": [ "depot_93" ], "closest_depot": "depot_93" }, "geometry": { "type": "Point", "coordinates": [ -103.599156325503515, 30.249374788797834 ] } },
{ "type": "Feature", "properties": { "cell_id": 101, "associated_depots": [ "depot_93" ], "closest_depot": "depot_93" }, "geometry": { "type": "Point", "coordinates": [ -103.599312304592772, 30.247785495416359 ] } },
{ "type": "Feature", "properties": { "cell_id": 102, "associated_depots": [ "depot_93" ], "closest_depot": "depot_93" }, "geometry": { "type": "Point", "coordinates": [ -103.599174477398392, 30.248571779124088 ] } },
{ "type": "Feature", "properties": { "cell_id": 103, "associated_depots": [ "depot_93" ], "closest_depot": "depot_93" }, "geometry": { "type": "Point", "coordinates": [ -103.598765114964024, 30.250136603427276 ] } },
{ "type": "Feature", "properties": { "cell_id": 104, "associated_depots": [ "depot_93" ], "closest_depot": "depot_93" }, "geometry": { "type": "Point", "coordinates": [ -103.598884455648886, 30.248913981759578 ] } },
{ "type": "Feature", "properties": { "cell_id": 105, "associated_depots": [ "depot_93" ], "closest_depot": "depot_93" }, "geometry": { "type": "Point", "coordinates": [ -103.599024599224293, 30.248174198723952 ] } },
{ "type": "Feature", "properties": { "cell_id": 106, "associated_depots": [ "depot_93" ], "closest_depot": "depot_93" }, "geometry": { "type": "Point", "coordinates": [ -103.598993935947661, 30.249799955243965 ] } },
{ "type": "Feature", "properties": { "cell_id": 107, "associated_depots": [ "depot_93" ], "closest_depot": "depot_93" }, "geometry": { "type": "Point", "coordinates": [ -103.598652351552062, 30.249576257637422 ] } },
{ "type": "Feature", "properties": { "cell_id": 108, "associated_depots": [ "depot_93" ], "closest_depot": "depot_93" }, "geometry": { "type": "Point", "coordinates": [ -103.598725806888794, 30.249247801170963 ] } },
{ "type": "Feature", "properties": { "cell_id": 109, "associated_depots": [ "depot_93" ], "closest_depot": "depot_93" }, "geometry": { "type": "Point", "coordinates": [ -103.598736471081963, 30.248575480695017 ] } },
{ "type": "Feature", "properties": { "cell_id": 110, "associated_depots": [ "depot_93" ], "closest_depot": "depot_93" }, "geometry": { "type": "Point", "coordinates": [ -103.598232889945137, 30.249444575698245 ] } },
{ "type": "Feature", "properties": { "cell_id": 111, "associated_depots": [ "depot_93" ], "closest_depot": "depot_93" }, "geometry": { "type": "Point", "coordinates": [ -103.598445111938148, 30.249011808303617 ] } },
{ "type": "Feature", "properties": { "cell_id": 112, "associated_depots": [ "depot_93" ], "closest_depot": "depot_93" }, "geometry": { "type": "Point", "coordinates": [ -103.598405405256699, 30.249887307525288 ] } }
]
}
